id,<病院（保健所別） H27.10.1現在>,hospital_name,開設許可年月日,開設年月日,postal_num,address,開設者コード,開　設　者,管　理　者,services,emergency,phone_number,latitude,longtitude,sickbed_num,general,recuperation,psychosis,tuberculosis,infected,matanity_delivery,brain_ambulance
1,市立函館,独立行政法人国立病院機構函館病院,S22.4.1,S22.4.1,041-0844,函館市川原町18番16号,1,独立行政法人国立病院機構,大原 正範　,内|神内|小|外|整|脳|呼外|心外|小外|泌|産婦|眼|リハ|放|麻|呼吸器内科|循環器内科|消化器内科|消化器外科|乳腺外科|甲状腺外科|病理診断科|緩和ケア科|精|皮,○,0138-51-6281,41.7891094,140.7735373,310,300,,,10,,,
2,市立函館,市立函館病院,H9.11.25,H12.10.8,041-8680,函館市港町1丁目10番1号,6,函館市,木村　純,内|精|神内|小|外|整|形|脳|心外|皮|泌|産婦|眼|耳|放|歯|矯歯|歯外|麻|リウ|呼外|乳腺外科|循環器内科|呼吸器内科|消化器内科|リハ|血液内科|消化器外科|病理診断科，救急科,○,0138-43-2000,41.8055649,140.7302199,668,582,,50,30,6,○,○
3,市立函館,社会福祉法人北海道社会事業協会函館病院,H17.7.8,H18.12.1,042-0935,函館市駒場町4番6号,9,社会福祉法人北海道社会事業協会,向谷　充宏　　,内|消|外|整|皮|放|歯|歯外|リハ|心内|耳|麻|泌,○,0138-53-5511,41.7845209,140.7707793,286,146,140,,,,,
4,市立函館,函館赤十字病院,S14.3.24,S14.4.5,040-0025,函館市堀川町6番21号,7,日本赤十字社,平田　康二,内|外|整|皮|リハ|放|麻|消化器内科|循環器内科|乳腺外科|腫瘍外科|血液|腫瘍内科,○,0138-51-5315,41.77849,140.7408925,150,150,,,,,,
5,市立函館,函館市医師会病院,S60.9.26,S60.11.5,041-0811,函館市富岡町2丁目10番10号,18,公益社団法人函館市医師会,本原　敏司,内|神内|呼|消|循|外|放|麻|肛|リハ,○,0138-43-6000,41.8069432,140.7528985,240,240,,,,,,
6,市立函館,共愛会病院,S33.3.5,S33.7.28,040-0014,函館市中島町7番21号,22,社会福祉法人函館共愛会,水島　豊,内|呼|消|循|小|外|整|脳|皮|泌|産婦|眼|耳|リハ|放|歯|歯外|麻,○,0138-51-2111,41.7854477,140.7404144,378,245,133,,,,○,
7,市立函館,函館中央病院,S11.8.7,S11.8.7,040-0011,函館市本町33番2号,22,社会福祉法人函館厚生院,橋本　友幸,内|小|外|整|形|脳|心外|皮|泌|産婦|眼|耳|リハ|放|歯外|麻|消化器内科|循環器内科|病理診断科|消化器外科|乳腺外科|肛門外科,○,0138-52-1231,41.7867868,140.7517385,527,527,,,,,○,○
8,市立函館,函館五稜郭病院,S25.2.16,S25.2.16,040-8611,函館市五稜郭町38番3号,22,社会福祉法人函館厚生院,老松　寛,内|小|外|整|形|脳|心外|小外|泌|産婦|眼|耳|リハ|放|歯外|麻|消化器内科|循環器内科|腎臓内科|呼吸器内科|呼吸器外科|病理診断科|消化器外科　　,○,0138-51-2295,41.7924336,140.7555212,516,516,,,,,○,
9,市立函館,道南勤医協函館稜北病院,S56.7.17,S56.8.1,041-0853,函館市中道2丁目51番1号,19,医療法人道南勤労者医療協会,及能　義広,内|呼|消|循|整|リハ,,0138-54-3113,41.81229,140.7623006,104,56,48,,,,,
10,市立函館,医療法人敬仁会函館おしま病院,S60.5.22,S60.6.1,040-0021,函館市的場町19番6号,19,医療法人敬仁会,福徳　雅章,内|緩和ケア内科,,0138-56-2308,41.7778487,140.7531445,56,20,36,,,,,
11,市立函館,医療法人亀田病院,H20.3.7,H21.5.8,041-0812,函館市昭和1丁目23番11号,19,医療法人亀田病院,肥川　浩之,内|外|整|泌|リハ|放|呼吸器内科|循環器内科|糖尿病|代謝内科|消化器内科|形|皮,○,0138-40-1500,41.8180305,140.7446432,179,119,60,,,,,
12,市立函館,医療法人亀田病院分院亀田北病院,S62.1.23,S62.2.15,041-0802,函館市石川町191番地4,19,医療法人亀田病院,井上　芳郎,内|精|放|心内,,0138-46-4651,41.8356922,140.7427454,400,,,400,,,,
13,市立函館,医療法人聖仁会森病院,H7.8.2,H8.9.1,041-0801,函館市桔梗町557番地,19,医療法人聖仁会,森　久恒,内|循環器内科|消化器内科|リハ|緩和ケア内科,,0138-47-2222,41.8604458,140.7535134,135,35,100,,,,,
14,市立函館,特定医療法人富田病院,S26.10.30,S26.11.2,042-0935,函館市駒場町9番18号,19,特定医療法人富田病院,吉田　義一,内|精|神内|外|整|リハ|放|呼吸器内科|消化器内科|循環器内科,○,0138-52-1112,41.7851514,140.7725987,390,45,29,316,,,,
15,市立函館,社会医療法人高橋病院,S31.1.11,S31.1.11,040-0054,函館市元町32番18号,19,社会医療法人高橋病院,高橋　肇,内|整|リハ|循環器内科|呼吸器内科|糖尿病|代謝内科|消化器内科|内視鏡内科|老年内科|呼吸器リハビリテーション,○,0138-23-7221,41.7654517,140.7120535,179,59,120,,,,,
16,市立函館,社会医療法人仁生会西堀病院,S47.4.17,S47.5.1,041-0853,函館市中道2丁目6番11号,19,社会医療法人仁生会,小芝　章剛,内|外|整|リハ|消化器内科|循環器内科，肛門内科,○,0138-52-1531,41.8058296,140.7583482,168,108,60,,,,,
17,市立函館,函館渡辺病院,S29.4.6,S29.4.6,042-0932,函館市湯川町1丁目31番1号,19,社会医療法人函館博栄会,増岡　昭生,内|精|外|整|皮|リハ|放|麻|児童精神科|老年精神科|糖尿病内科|内視鏡内科|大腸外科|乳腺外科|消化器内科|循環器内科|肛門外科|呼吸器内科|消化器外科|小児皮膚科|内分泌内科,○,0138-59-2221,41.7806828,140.7858871,581,120,,461,,,,
18,市立函館,医療法人尚仁会竹田病院,S36.7.22,S36.7.1,040-0054,函館市元町29番21号,19,医療法人尚仁会,竹田　公一,内|小,,0138-26-5811,41.7628132,140.7162532,60,,60,,,,,
19,市立函館,医療法人同仁会佐々木病院,S31.11.5,S31.11.5,041-0813,函館市亀田本町36番1号,19,医療法人同仁会,佐々木　寿彦,内|精|神|呼|胃|循|外|整|リハ|放,,0138-42-0171,41.8072732,140.7358916,222,30,87,105,,,,
20,市立函館,医療法人社団函館脳神経外科病院,H2.1.16,H2.2.1,041-0832,函館市神山1丁目4番12号,19,医療法人社団函館脳神経外科,西谷　幹雄,循環器内科|脳|リハ|麻,○,0138-53-6111,41.8131872,140.7630978,128,128,,,,,,○
21,市立函館,医療法人社団健和会函館おおむら整形外科病院,H25.12.4,H26.8.1,041-0802,函館市石川町125番1,19,医療法人社団健和会,大村　健久,整|リハ|麻,○,0138-47-3300,41.8327149,140.7459092,56,56,,,,,,
22,市立函館,医療法人函館循環器科内科病院,H6.8.29,H6.9.1,041-0843,函館市花園町24番5号,19,医療法人函館循環器科内科病院,池　薫,内|呼|消|循|アレ,,0138-52-2521,41.7924482,140.7785259,65,32,33,,,,,
23,市立函館,秋山記念病院,H16.8.3,H16.9.1,041-0802,函館市石川町41番地9,19,医療法人社団正寿会,秋山　實男,産|婦|乳腺外科|麻,,0138-46-6660,41.8279403,140.7402459,57,57,,,,,○,
24,市立函館,江口眼科病院,H12.1.1,H12.1.1,040-0053,函館市末広町7番13号,19,医療法人社団江山会,江口　秀一郎,眼,,0138-23-2272,41.7630159,140.7194307,52,52,,,,,,
25,市立函館,医療法人社団協立消化器循環器病院,H8.4.23,H8.5.1,041-0806,函館市美原3丁目2番16号,19,医療法人社団協立消化器循環器病院,能戸　伸哉,内|呼吸器内科|消化器内科|循環器内科,,0138-46-1300,41.8158754,140.7527232,49,23,26,,,,,
26,市立函館,医療法人社団玄心会吉田眼科病院,H13.12.19,H14.1.1,041-0851,函館市本通2丁目31番8号,19,医療法人社団玄心会吉田眼科病院,吉田　玄雄,眼,,0138-53-8311,41.798789,140.7709426,40,40,,,,,,
27,市立函館,医療法人雄心会函館新都市病院,H7.8.29,H7.9.1,041-0802,函館市石川町331番地1,19,医療法人雄心会,青野　允,内|整|脳|リハ|放|麻|歯|循環器内科|脳神経内科,○,0138-46-1321,41.82496,140.7381572,155,155,,,,,,○
28,市立函館,市立函館恵山病院,H14.1.10,H14.12.26,041-0525,函館市日ノ浜町15番地1,6,函館市,泉山　修,内|小|外|リハ,○,0138-85-2001,41.7757515,141.0980394,60,,60,,,,,
29,市立函館,市立函館南茅部病院,S35.4.22,S35.10.1,041-1612,函館市安浦町92番地,6,函館市,加藤  輝夫,内|小|外|整,○,0138-25-3511,41.9169839,140.9575157,59,37,22,,,,,
31,渡島,松前町立松前病院,平2.10.17,平2.11.1,049-1503,松前郡松前町字大磯174番地の1,6,松前町,木村　眞司,内|小|外|整|眼|耳|リハ,○,0139-42-2515,41.4277611,140.0962946,100,100,,,,,,
32,渡島,木古内町国民健康保険病院,H21.5.12,H22.5.1,049-0422,上磯郡木古内町字本町710番地,6,木古内町,清水　秀和,内|呼吸器内科|消化器内科|循環器内科|小|外|整|皮|泌|こう門外科|婦|眼|耳|放|歯,○,01392-2-2079,41.6741893,140.4363183,99,99,,,,,,
33,渡島,ななえ新病院,"平15,6,27","平15,7,1",041-1111,亀田郡七飯町本町７丁目657番5号,22,社会福祉法人函館厚生院,綿谷　靖彦,内|呼吸器内科|消化器内科|循環器内科|外|整|リハ|放|歯|矯歯|小歯|歯外,○,0138-65-2525,41.8964143,140.7042903,199,49,150,,,,,
34,渡島,医療法人社団立青会なるかわ病院,平18.3.1,平19.3.1,041-1112,亀田郡七飯町鳴川4丁目325番1,19,医療法人社団立青会,藤嵜　泰利,内|精|神,,0138-65-7131,41.8861908,140.7113928,396,,36,360,,,,
35,渡島,森町国民健康保険病院,昭36.10.24,昭36.11.2,049-2311,茅部郡森町字上台町326番地,6,森町,髙塩　哲也,内|小|外|整|泌|放,○,01374-2-2580,42.1028422,140.5671358,60,60,,,,,,
36,渡島,医療法人雄心会新都市砂原病院,平15.１.10,平15.9.１,049-2222,茅部郡森町字砂原1丁目30番地59,19,医療法人雄心会,佐藤　正敏,内|消|循|外|整|脳,,01374-8-3131,42.1268717,140.6629837,83,41,42,,,,,
37,渡島,医療法人社団森生会森の里病院,平11.9.6,平11.10.１,049-2311,茅部郡森町字上台町330-84,19,医療法人社団森生会,玉城　悟,内|精,,01374-2-5000,42.0988201,140.5600897,100,,,100,,,,
39,江差,北海道立江差病院,H8.10.28,H10.7.10,043-0022,檜山郡江差町字伏木戸町484番地,5,北海道,寺井　紀雄,内|精|神|小|外|整|産婦|眼|耳|リハ|泌|皮|麻|消内|循内|呼内|腎臓内科,○,0139-52-0036,41.9133846,140.1448073,198,146,,48,,4,○,
40,江差,厚沢部町国民健康保険病院,S25.8.29,S25.11.22,043-1113,檜山郡厚沢部町新町14番地1,6,厚沢部町,佐々木　紀仁,内|外|眼|麻,○,0139-64-3036,41.9185176,140.222928,69,45,24,,,,,
41,江差,奥尻町国民健康保険病院,S39.8.11,S40.5.1,043-1401,奥尻郡奥尻町字奥尻462番地,6,奥尻町,東　常視,内|小|外|皮|産婦|眼|耳|歯|矯歯,○,01397-2-3151,42.1722056,139.5071363,54,22,32,,,,,
42,江差,乙部町国民健康保険病院,S40.12.6,S41.4.1,043-0103,爾志郡乙部町字緑町704の1番地,6,乙部町,村瀬　英也,内|小|外,○,0139-62-2331,41.968412,140.1403969,62,52,10,,,,,
43,江差,医療法人社団恵愛会佐々木病院,S48.5.17,S48.6.1,043-0041,檜山郡江差町字姥神町31番地,19,医療法人社団恵愛会,鶴谷　隆司,内|呼|消|循|アレ|リハ,,0139-52-1070,41.8667116,140.1236214,60,,60,,,,,
45,八雲,今金町国保病院,S34.11.26,S34.12.23,049-4308,瀬棚郡今金町字今金17番地の2,6,今金町,楯　秀貞,内|精|小|外|整|婦|リハ|眼,○,0137-82-0221,42.4292557,140.0075473,52,33,19,, , ,,
46,八雲,せたな町立国保病院,S32.6.1,S32.6.10,049-4501,久遠郡せたな町北檜山区北檜山378番地,6,せたな町,森　利光,内|循環器内科|整|小|外|婦|リハ|歯|眼|,○,0137-84-5321,42.4160334,139.8757742,97,58,39,,,,,
47,八雲,医療法人財団明理会道南ロイヤル病院,H7.6.1,H7.6.1,049-4501,久遠郡せたな町北檜山区北檜山322番地の4,19,医療法人財団明理会,鈴木　孝治,内|消化器内科|循環器内科|人工透析内科|外|形,,0137-84-5011,42.4147003,139.878913,174,54,120,,,,,
48,八雲,独立行政法人国立病院機構八雲病院,S20.12.1,S20.12.13,049-3116,二海郡八雲町宮園町128番地,1,独立行政法人国立病院機構,石川　幸辰,内|小|整|歯|小児神経科,,0137-63-2126,42.2505491,140.2625624,240,120,120,,,,,
49,八雲,八雲総合病院,S32.9.1,S32.10.3,049-3105,二海郡八雲町東雲町50番地,6,八雲町,佐藤　博,内|精|心臓血管内科|リウ|小|外|整|脳|皮|泌|産婦|眼|耳|リハ|放|歯|麻,○,0137-63-2185,42.2526883,140.2780505,358,214,40,100,,4,○,○
50,八雲,長万部町立病院,S56.10.7,S58.1.11,049-3521,山越郡長万部町字長万部18番地40,6,長万部町,熊谷　展国,内|小|外|眼|麻,○,01377-2-5611,42.510147,140.3770142,54,30,24,,,,,
51,八雲,八雲町熊石国民健康保険病院,S34.12.10,S34.12.10,043-0416,二海郡八雲町熊石雲石町494番地1,6,八雲町,藤戸　収作,内|小|外|整|婦|眼,○,01398-2-3555,42.1296304,139.9768927,99,99,,,,,,
53,札幌市,ＫＫＲ札幌医療センター斗南病院,昭36.1.15,,060-0001,札幌市中央区北1条西6丁目,16,国家公務員共済組合連合会,奥芝　俊一,内|消化器内科|循環器内科|リウ|消化器外科|整|形|皮|泌|眼|耳|麻|婦|リハ|腫瘍内科|呼外|呼吸器内科|糖尿病内分泌内科|血液内科|内視鏡外科|乳腺外科|頭頚部外科|婦人科（生殖医療）|放射線診断科|病理診断科,○,011-231-2121,43.0619845,141.3477019,243,243,,,,,,
54,札幌市,特定医療法人　平成会　平成会病院,平24.2.10,平24.3.11,060-0001,札幌市中央区北1条西18丁目1番1,19,特定医療法人　平成会,岡村　篤,外|リハ|放|形|麻|消化器内科|呼吸器内科,,011-631-0333,43.0587871,141.3293426,82,82,,,,,,
55,札幌市,時計台記念病院,平17.8.30,平17.10.1,060-0031,札幌市中央区北1条東1丁目2番地3,19,社会医療法人社団カレスサッポロ,本田　耕一,内|循環器内科|消化器内科|糖尿病内科|整|リハ|形|婦|脳|眼|精|麻|放|リウ|外|緩和ケア,○,011-251-1221,43.0632263,141.357451,250,250,,,,,,
56,札幌市,ＪＲ札幌病院,大4.11.6,,060-0033,札幌市中央区北3条東1丁目1番地,21,北海道旅客鉄道株式会社,安藤　利昭,内|精|小|外|整|皮|泌|肛門外科|産婦|眼|耳|放|歯外|麻|リウ|呼吸器内科|呼吸器外科|循環器内科|血管外科|消化器内科|腎臓内科|乳腺外科|病理診断科|糖尿病内科,○,011-208-7150,43.0659621,141.3563982,312,312,,,,,,
57,札幌市,ＪＡ北海道厚生連札幌厚生病院,平4.11.12,平6.10.1,060-0033,札幌市中央区北3条東8丁目5番地,10,北海道厚生農業協同組合連合会,狩野　吉康,内|呼吸器内科|消化器内科|循環器内科|小|外|整|皮|泌|産婦|眼|耳|リハ|放|麻|神内|心外|精|緩和ケア|「糖尿病|内分泌内科」|血液内科|化学療法内科|消化器外科|病理診断科,○,011-261-5331,43.0675817,141.3691834,519,519,,,,,○,
58,札幌市,医療法人社団正心会　岡本病院,昭58.9.6,昭58.10.1,060-0007,札幌市中央区北7条西26丁目3番1号,19,医療法人社団正心会,岡本　呉賦　,内|精|神|呼|消|循,,011-611-2351,43.065858,141.3160156,217,,28,189,,,,
59,札幌市,医療法人札幌円山整形外科病院,平元.3.16,平元.4.1,060-0007,札幌市中央区北7条西27丁目1番3号,19,医療法人札幌円山整形外科病院,山崎　生久男,リウ|整|リハ|麻,○,011-612-1133,43.0651885,141.3147658,110,110,,,,,,
60,札幌市,医療法人桑園中央病院,平7.12.19,平9.4.21,060-0008,札幌市中央区北8条西16丁目28番35号,19,医療法人桑園中央病院,松井　傑,内|外|泌|リハ|放|麻|皮|循環器内科,,011-621-1023,43.0684332,141.3303225,68,38,30,,,,,
61,札幌市,市立札幌病院,平6.7.13,平7.10.11,060-0011,札幌市中央区北11条西13丁目1番1号,6,札幌市,関　利盛,内|精|神内|リウ|小|外|整|形|脳|呼外|小外|皮|泌|産婦|眼|耳|リハ|麻|呼吸器内科|消化器内科|消化器外科|循環器内科|腎臓内科|血液内科|腫瘍内科|乳腺外科|病理診断科|救急科|歯外|心外|糖尿病内分泌内科|新生児内科|緩和ケア内科|感染症内科|腎臓移植外科|放射線診断科|放射線治療科,○,011-726-2211,43.0707969,141.3343443,798,752,,38,,8,○,○
62,札幌市,札幌循環器病院,"平
16.7.22","平
16.8.23",060-0011,札幌市中央区北11条西14丁目29番15号,19,医療法人社団札幌循環器クリニック,續　雅博,内|消化器内科|循環器内科,,011-747-5821,43.0733967,141.3334196,89,89,,,,,,
63,札幌市,医療法人社団健心会　桑園病院,平7.12.11,平8.1.1,060-0012,札幌市中央区北12条西15丁目1番30号,19,医療法人社団健心会,池田　輝明,心内|精|神,,011-716-2497,43.0730132,141.3301362,156,,,156,,,,
64,札幌市,札幌南一条病院,昭56.11.11,昭56.12.1,060-0061,札幌市中央区南1条西13丁目317番地1,19,医療法人社団北海道恵愛会,工藤　靖夫,内|呼吸器内科|消化器内科|循環器内科|腎臓内科|糖尿病内科|放|リハ|血管外科|人工透析内科　　　　,,011-271-3711,43.0565876,141.337817,147,147,,,,,,
65,札幌市,社会医療法人　医仁会　中村記念病院,昭55.12.4,昭55.12.8,060-0061,札幌市中央区南1条西14丁目291番地190,19,社会医療法人　医仁会,中村　博彦,内|循環器内科|神内|「糖尿病|代謝内科」|外|消化器外科|消化器内科|整|心外|脳|眼|耳|リハ|放|麻|病理診断科,○,011-231-8555,43.0564626,141.3362561,499,499,,,,,,○
66,札幌市,ＮＴＴ東日本札幌病院,昭60.4.1,昭60.4.1,060-0061,札幌市中央区南1条西15丁目290番地,21,東日本電信電話株式会社,小池　隆夫,精|呼吸器内科|消化器内科|循環器内科|小|外|消化器外科|呼吸器外科|整|皮|泌|産婦|眼|耳|放|麻|心外|腎臓内科|人工透析内科|「血液|腫瘍内科」|糖尿病内分泌内科|リウ|病,○,011-623-7000,43.055721,141.3344646,301,301,,,,,○,
67,札幌市,札幌医科大学附属病院,平19.4.1,平19.4.1,060-0061,札幌市中央区南1条西16丁目291番地,22,北海道公立大学法人札幌医科大学,山下　敏彦,内|精|循|小|外|整|形|脳|心外|皮|泌|産婦|眼|耳|リハ|放|歯|歯外|麻|神内|矯歯|救|病,○,011-611-2111,43.0552099,141.3334036,938,890,,42,6,,○,○
68,札幌市,医療法人萬田記念病院,平4.8.25,平4.9.1,060-0062,札幌市中央区南2条西1丁目1番地,19,医療法人萬田記念病院,萬田　直紀,内|消化器内科|糖尿病内科|腎臓内科|眼,,011-231-4032,43.0587852,141.3567819,89,89,,,,,,
69,札幌市,医療法人社団いとう整形外科病院,平元.4.19,平元.5.1,060-0062,札幌市中央区南2条西10丁目5番地,19,医療法人社団いとう整形外科病院,伊藤　宇一,内|整|リハ|麻,○,011-241-5461,43.0566572,141.342175,80,80,,,,,,
70,札幌市,一般財団法人　札幌同交会病院,昭31.6.22,昭31.7.10,060-0062,札幌市中央区南2条西19丁目291番地,18,一般財団法人　札幌同交会病院,小林　壯光,内|消化器内科|リハ|放|リウ,,011-611-9131,43.0545071,141.3291901,166,118,48,,,,,
71,札幌市,札幌南三条病院,平15.12.24,平16.1.1,060-0063,札幌市中央区南3条西6丁目4番2号,19,医療法人社団北海道恵愛会,関根　球一郎,内|呼外|呼吸器内科|消化器内科|脳|麻|放,,011-233-3711,43.0559797,141.3494105,99,99,,,,,,
72,札幌市,創成東病院,平13.12.18,平14.1.1,060-0053,札幌市中央区南3条東3丁目13番地,19,医療法人えんどう会,森田　浩一,内|胃腸内科（内視鏡）|リハ,,011-222-2117,43.0580326,141.3616594,94,61,33,,,,,
73,札幌市,医療法人菊郷会　愛育病院,平20.3.19,平20.3.30,064-0804,札幌市中央区南4条西25丁目2番1号,18,医療法人菊郷会,岡本　宗則,内|消化器内科|循環器内科|血液内科|外|整|小|麻|リハ,○,011-563-2211,43.0519905,141.3206105,180,180,,,,,,
74,札幌市,医療法人社団清和会　南札幌病院,平13.8.21,平13.8.27,064-0909,札幌市中央区南9条西7丁目1番23号,19,医療法人社団清和会,相川　忠弘,内|呼吸器内科|消化器内科|循環器内科|リハ|糖尿病内科|腎臓内科,,011-511-3368,43.0483334,141.348336,94,94,,,,,,
75,札幌市,札幌中央病院,昭54.12.21,昭55.1.1,064-0809,札幌市中央区南9条西10丁目1番50号,19,社会医療法人鳩仁会,荒木　英司,内|呼吸器内科|呼外|消化器内科|消化器外科|循環器内科|外|整|心外|リハ|リウ|麻|腎臓内科|形,○,011-513-0111,43.0476222,141.3429921,180,180,,,,,,
76,札幌市,医療法人社団銀杏会　川西内科胃腸科病院,平14. 7.30,平14.8.1,064-0811,札幌市中央区南11条西8丁目2番25号,19,医療法人社団銀杏会,川西　譲児,内|胃内|消内|内視鏡内科|緩和ケア内科,,011-511-2060,43.0449421,141.3474252,85,85,,,,,,
77,札幌市,医療法人社団心和会　心和病院,平2.11.17,平2.12.1,064-0913,札幌市中央区南13条西20丁目1番6号,19,医療法人社団心和会心和病院,松尾　喜徳,内|循環器内科|リハ|麻|ペインクリニック内科,,011-551-4184,43.0415864,141.3291715,40,40,,,,,,
78,札幌市,医療法人大空　札幌山鼻病院,昭63.8.24,昭63.9.1,064-0914,札幌市中央区南14条西15丁目2番6号,19,医療法人大空,柴田　好,内|呼吸器内科|消化器内科|循環器内科|歯|リハ,,011-563-0030,43.0406014,141.3361414,50,50,,,,,,
79,札幌市,医療法人藻友会　札幌いしやま病院,平16.5.12,平16.6.1,064-0915,札幌市中央区南15条西10丁目4番1号,19,医療法人藻友会札幌いしやま病院,石山　元太郎,肛門外科|内視鏡外科（大腸|胃）,,011-551-2241,43.0393566,141.3441869,89,89,,,,,,
80,札幌市,医療法人社団慶愛会　札幌花園病院,昭35.7.10,昭35.12.1,064-0915,札幌市中央区南15条西15丁目1番30号,19,医療法人社団慶愛会,松原　良次,内|精|神,,011-561-6131,43.039198,141.3351405,239,,,239,,,,
81,札幌市,医療法人社団　土田病院,平11.12.21,平12.1.1,064-0921,札幌市中央区南21条西9丁目2?11,19,医療法人社団土田病院,土田　茂,内|呼吸器内科|消化器内科|消化器外科|循環器内科|外|整|リハ|放|肛門外科|内分泌外科|救急科,○,011-531-7013,43.0310658,141.3465594,134,42,92,,,,,
82,札幌市,医療法人社団慈藻会　平松記念病院,昭48.11.20,昭48.12.1,064-0922,札幌市中央区南22条西14丁目1番20号,19,医療法人社団慈藻会,宗　代次,内|精|心内,,011-561-0708,43.0300546,141.3389518,228,,,228,,,,
83,札幌市,医療法人社団札幌外科記念病院,平8.12.20,平9.1.1,064-0923,札幌市中央区南23条西15丁目1番30号,19,医療法人社団札幌外科記念病院,長内　宏之,内|消化器内科|消化器外科|外|整|小外|肛門外科|放|麻,○,011-563-0151,43.0274298,141.3379215,99,99,,,,,,
84,札幌市,社会医療法人北海道循環器病院,昭63.4.18,昭63.5.1,064-0927,札幌市中央区南27条西13丁目1番30号,19,社会医療法人北海道循環器病院,大堀　克己,内|呼吸器内科|消化器内科|循環器内科|外|心外|リハ|麻|放,,011-563-3911,43.0236164,141.3425325,95,95,,,,,,
85,札幌市,慈啓会病院,昭23.11.8,昭24.3.5,064-8575,札幌市中央区旭ヶ丘5丁目6番50号,22,社会福祉法人札幌慈啓会,東出　俊之,内|精|リハ|老年内科|消化器内科|循環器内科|呼吸器内科|放射線診断科,,011-561-8292,43.0369257,141.3231917,235,92,44,99,,,,
86,札幌市,札幌西円山病院,昭59.12.15,昭60.1.1,064-8557,札幌市中央区円山西町4丁目7番25号,19,医療法人渓仁会,浦　信行,内|神内|リハ|歯|循,,011-642-4121,43.0400857,141.3034017,821,237,584,,,,,
87,札幌市,医療法人北仁会　旭山病院,昭56.1.17,昭56.2.1,064-0946,札幌市中央区双子山 4丁目3番33号,19,医療法人北仁会,山家　研司,内|精|神|放|歯,,011-641-7755,43.0413137,141.3120897,379,,,379,,,,
88,札幌市,医療法人社団明日佳　札幌明日佳病院,昭61.10.14,昭61.11.1,064-0951,札幌市中央区宮の森 1条17丁目1番25号,19,医療法人社団明日佳,山岸　雅彦,内|リハ|歯,,011-641-8813,43.0432655,141.2932635,243,,243,,,,,
89,札幌市,医療法人讃生会　宮の森記念病院,平8.12.19,平9.1.1,064-0953,札幌市中央区宮の森 3条7丁目5番25号,19,医療法人社団讃生会,松橋　尚生,内|消化器内科|循環器内科|腎臓内科|外|脳|リハ|皮,,011-641-6641,43.0621966,141.3027087,92,92,,,,,,
90,札幌市,医療法人社団恵和会　宮の森病院,昭62.10.19,昭62.11.1,064-0958,札幌市中央区宮の森1237番地1,19,医療法人社団恵和会,山田　惟好,内|歯,,011-611-2211,43.0570357,141.2921378,240,,240,,,,,
92,札幌市,医療法人社団　太黒胃腸内科病院,平7.12.28,平8.1.1,001-0011,札幌市北区北11条西3丁目1番15号,19,医療法人社団　太黒胃腸内科病院,今井　希一,内|胃腸内科,,011-716-9161,43.0740803,141.3491177,60,60,,,,,,
93,札幌市,札幌マタニティ・ウイメンズホスピタル,平5.8.26,平5.9.6,001-0013,札幌市北区北13条西4丁目2番23号,19,医療法人明日葉会,大久保　仁,小|産|婦,,011-746-5505,43.0767188,141.3471289,52,52,,,,,○,
94,札幌市,北海道大学病院,大10.7.22,大10.11.1,060-0814,札幌市北区北14条西5丁目,2,国立大学法人北海道大学,福田　諭,内|消化器内科|循環器内科|血液内科|腫瘍内科|精|神内|小|小外|整|形|脳|循環器外科|消化器外科|呼吸器外科|皮|泌|産|「乳腺|内分泌内科」|眼|耳|リハ|放|放射線診断科|放射線治療科|歯|矯歯|小歯|歯外|麻|救,○,011-716-1161,43.0777603,141.3458511,946,874,,72,,,○,○
95,札幌市,社会医療法人秀眸会　大塚眼科病院,平3.8.23,平3.9.1,001-0016,札幌市北区北16条西4丁目2-17,19,社会医療法人秀眸会　大塚眼科病院,樋口　眞琴,内|眼,,011-747-5211,43.0801378,141.3458454,52,52,,,,,,
96,札幌市,松田整形外科記念病院,昭54.4.19,昭54.5.1,001-0018,札幌市北区北18条西4丁目21番地17,19,医療法人松田整形外科記念病院,菅原　誠,リウ|整|リハ|麻|歯|歯外,○,011-746-3666,43.082057,141.3455037,60,60,,,,,,
97,札幌市,医療法人　中江病院,昭30.9.1,昭30.10.1,001-0022,札幌市北区北22条西7丁目18番地2番1号,19,医療法人　中江病院,中江　重孝,内|精|心内|歯,,011-716-7181,43.0878701,141.3398594,280,,,280,,,,
98,札幌市,長生会病院,平3.12.11,平4.1.6,001-0025,札幌市北区北25条西16丁目2番1号,23,竹林　克重,竹林　克重,内|消|小,,011-726-4835,43.0912831,141.3242634,120,28,92,,,,,
99,札幌市,医療法人社団北腎会　坂泌尿器科病院,平6.4.21,平6.5.1,001-0030,札幌市北区北30条西14丁目3番1号,19,医療法人社団北腎会,坂　丈敏,循|泌|麻,,011-709-1212,43.0995643,141.32669,40,40,,,,,,
100,札幌市,社会医療法人北楡会　開成病院,昭51.7.28,昭51.9.1,001-0033,札幌市北区北33条西6丁目2番35号,19,社会医療法人北楡会,齋藤　雅雄,内|消化器内科|血液内科|外|麻,,011-757-2201,43.1000075,141.3385393,108,108,,,,,,
101,札幌市,医療法人社団憲仁会　牧田病院,昭57.12.28,昭58.2.1,001-0901,札幌市北区新琴似1条2丁目6番25号,19,医療法人社団憲仁会,清水　健一,内|呼|アレ,,011-761-4835,43.1031844,141.3250987,57,57,,,,,,
102,札幌市,医療法人研成会　札幌鈴木病院,昭63.3.12,昭63.4.1,001-0903,札幌市北区新琴似3条1丁目1番27号,19,医療法人社団研成会,篠原　かほる,内|心内|精|神|胃|循環器内科|小|神内,,011-709-5511,43.1046871,141.3301564,163,,,163,,,,
103,札幌市,医療法人　麻生整形外科病院,昭62.4.20,昭62.5.1,001-0908,札幌市北区新琴似8条2丁目2番5号,19,医療法人　麻生整形外科病院,横澤　均,整|心外|リハ|麻,○,011-764-3311,43.1128415,141.3326972,53,53,,,,,,
104,札幌市,医療法人社団　北札幌病院,平3.8.23,平3.9.1,001-0909,札幌市北区新琴似9条1丁目1番1号,19,医療法人社団　北札幌病院,幾世橋　経介,内|呼吸気内科|循環器内科|消化器内科|外|整,○,011-756-1111,43.1126667,141.3372885,95,35,60,,,,,
105,札幌市,晴生会さっぽろ病院,平23.7.27,平23.8.1,001-0921,札幌市北区新川1条1丁目1番23号,19,医療法人　晴生会,山村　政臣,内|リハ,,011-716-8155,43.0937604,141.3208663,93,46,47,,,,,
106,札幌市,医療法人　新川新道整形外科病院,昭55.8.19,昭55.9.1,001-0925,札幌市北区新川5条4丁目2番8号,19,医療法人　新川新道整形外科病院,野中　伸介,内|整|ペインクリニック外科|漢方内科,○,011-763-0110,43.1028843,141.3208907,72,32,40,,,,,
107,札幌市,特定医療法人朋友会　石金病院,昭59.1.12,昭59.2.1,001-0930,札幌市北区新川714番地2,19,特定医療法人朋友会,石金　朋人,内|精|神,,011-762-4111,43.1202339,141.2989249,210,,,210,,,,
108,札幌市,社会医療法人延山会　北成病院,昭54.9.19,昭65.12.1,001-0933,札幌市北区新川西3条2丁目10番1号,19,社会医療法人延山会,棚澤　哲,内|呼|消|循|放,,011-764-3021,43.1242916,141.2873842,138,54,84,,,,,
109,札幌市,医療法人社団栄杜会　小原病院,平4.8.20,平4.9.1,002-0859,札幌市北区屯田9条12丁目5-1,19,医療法人社団栄杜会小原病院,小原　敏之,内|精|神,,011-771-0881,43.1443453,141.3168822,145,,,145,,,,
110,札幌市,医療法人社団　札幌百合の会病院,平元.10.19,平元.11.1,002-8081,札幌市北区百合が原11丁目186,19,医療法人社団　札幌百合の会病院,小野寺　次民,内|消化器内科|呼吸器内科|循環器内科|リハ|糖尿病内科|内分泌内科,,011-771-1501,43.1319369,141.3675182,136,48,88,,,,,
111,札幌市,医療法人社団　荒木病院,平11.12.14,平12.1.1,002-8023,札幌市北区篠路3条2丁目1番92号,19,医療法人社団　荒木病院,荒木　啓伸,内|精|神,,011-771-5731,43.1451432,141.3541519,148,,27,121,,,,
112,札幌市,社会医療法人康和会　札幌しらかば台篠路病院,平22.8.30,平22.9.1,002-8027,札幌市北区篠路7条4丁目2番15号,19,社会医療法人康和会,荒谷　英二,内|消化器内科|リハ,,011-773-0711,43.1525147,141.3589205,180,60,120,,,,,
113,札幌市,医療法人社団　五稜会病院,平2.10.29,平2.11.1,002-8029,札幌市北区篠路9条6丁目2番3号,19,医療法人社団　五稜会病院　,千丈　雅徳,内|心内|精|消内,,011-771-5660,43.1552369,141.3641032,193,,,193,,,,
114,札幌市,医療法人社団　札幌優翔館病院,昭56.9.30,昭56.10.1,002-8043,札幌市北区東茨戸２条２丁目８番２５号,19,医療法人社団　札幌優翔館病院,三國　主税,内|外|消化器内科|循環器内科|呼吸器内科|リハ|神経精神科|人工透析外科,,011-772-9211,43.1647688,141.3579893,144,96,48,,,,,
115,札幌市,北海道医療大学病院,平17.6.22,平17.7.1,002-8072,札幌市北区あいの里2条5丁目,20,学校法人東日本学園                     ,辻　昌宏,内|消化器内科|呼吸器内科|循環器内科|小|皮|整|耳|心内|歯|小歯|矯歯|歯外|眼|麻,,011-778-7575,43.1602798,141.3978221,24,24,,,,,,
117,札幌市,天使病院,平15.6.20,平15.7.1,065-0012,札幌市東区北12条東3丁目1-1,19,社会医療法人母恋,藤井　ひとみ,内|呼吸器内科|消化器内科|循環器内科|外|小児外科|乳外|産婦|小|麻|整|耳|眼|精|放|血液内科|糖尿病内科|肝臓内科|人工透析内科,○,011-711-0101,43.0762609,141.3572447,260,260,,,,,○,
118,札幌市,医療法人社団誠心会　誠心眼科病院,平7.4.28,平7.5.22,065-0015,札幌市東区北15条東18丁目5番15号,19,医療法人社団誠心会,松田　整二,眼,,011-785-3111,43.0833273,141.3789982,23,23,,,,,,
119,札幌市,医療法人社団札幌道都病院,平6.12.7,平7.1.1,065-0017,札幌市東区北17条東14丁目3番2号,19,医療法人社団札幌道都病院,奏　史壯,内|呼吸器内科|消化器内科|消化器外科|循環器内科|神内|リウ|外|肛門外科|リハ|形|放|麻,,011-731-1155,43.0846409,141.371657,188,188,,,,,,
120,札幌市,医療法人育愛会　札幌東豊病院,平元.8.9,平元.9.1,065-0017,札幌市東区北17条東15丁目3番1号,19,医療法人育愛会,出口　圭三,小|産|婦|麻,,011-704-3911,43.0849047,141.3724097,67,67,,,,,○,
121,札幌市,医療法人セレス　さっぽろ神経内科病院,平26.6.3,平27.7.1,065-0021,札幌市東区北２１条東２１丁目２番１号,19,医療法人セレス,後藤　康之,神内|内|ペインクリニック内科|リハ,,011-870-5700,43.090746,141.3833167,62,62,,,,,,
122,札幌市,医療法人札幌麻生脳神経外科病院,昭63.12.16,昭64.1.1,065-0022,札幌市東区北22条東1丁目1番40号,19,医療法人札幌麻生脳神経外科病院,飛彈　一利,神内|脳|リハ|放,○,011-731-2321,43.088237,141.349864,145,145,,,,,,○
123,札幌市,医療法人社団我汝会　さっぽろ病院,平21.10.29,平22.4.1,065-0024,札幌市東区北24条東1丁目3番7号,19,医療法人社団我汝会,春藤　基之,整|リハ|麻,,011-753-3030,43.0916949,141.3500388,50,50,,,,,,
124,札幌市,社会医療法人社団愛心館　愛心メモリアル病院,平8.12.19,平9.1.1,065-0027,札幌市東区北27条東1丁目1番15号,19,社会医療法人社団愛心館,石井　浩二,循環器内科|人工透析内科|外|心外|眼,○,011-752-3535,43.0940668,141.3473945,71,71,,,,,,
125,札幌市,北光記念病院,平8.1.19,平8.2.1,065-0027,札幌市東区北27条東8丁目1番6号,19,社会医療法人社団カレスサッポロ,櫻井　正之,内|消化器内科|循環器内科|心外|放,,011-722-1133,43.0966474,141.3608403,145,145,,,,,,
126,札幌市,医療法人啓生会病院　,昭45.4.17,昭45.5.1,065-0027,札幌市東区北27条東20丁目5番25号,19,医療法人啓生会　,後藤田　敏彦,精|心内,,011-781-9321,43.0995616,141.3815717,211,,,211,,,,
127,札幌市,札幌東和病院,昭60.8.19,昭60.9.18,065-0030,札幌市東区北30条東18丁目8番1号,23,池下　照彦,池下　照彦,内|リハ|放,,011-784-1118,43.1010918,141.3768275,210,,210,,,,,
128,札幌市,医療法人徳洲会　札幌東徳洲会病院,昭61.1.16,昭61.2.1,065-0033,札幌市東区北33条東14丁目3番1号,19,医療法人徳洲会,清水　洋三,内|呼吸器内科|消化器内科|腎臓内科|循環器内科|脳神経内科|小|外|消化器外科|整|脳|心外|皮|形|耳|リハ|眼|麻|歯外|病理診断科|肛門外科|救急科|乳腺外科|放射線診断科|放射線治療科|「血液|腫瘍内科」,○,011-722-1110,43.1035661,141.3658978,325,325,,,,,,○
129,札幌市,札幌北４０条病院,平27.7.21,平H27.8.1,007-0840,札幌市東区北40条東1丁目1番3号,19,医療法人エム・ティー・エヌ,南谷　正水,内|泌,,011-711-1731,43.1073094,141.3444855,56,56,,,,,,
130,札幌市,社会医療法人耳鼻咽喉科麻生病院,平4.8.11,平4.9.1,007-0840,札幌市東区北40条東1丁目1番7号,19,社会医療法人耳鼻咽喉科麻生,石川　和郎,耳|気|麻|歯外,,011-731-4133,43.1079815,141.344641,35,35,,,,,,
131,札幌市,北海道泌尿器科記念病院,平27.7.6,平27.8.1,007-0841,札幌市東区北４１条東１丁目１番２５号　,19,医療法人エム・ティー・エヌ,飴田　要,泌|放|麻,,011-711-1717,43.1095674,141.3447826,40,40,,,,,,
132,札幌市,特定医療法人とこはる　東栄病院,平2.10.19,平2.11.1,007-0841,札幌市東区北41条東16丁目3番14号,19,特定医療法人とこはる,高橋　建二,内|消化器内科|糖尿病内科|小児科（感染症|アレルギー疾患）,,011-782-0111,43.1127926,141.3675026,52,52,,,,,,
133,札幌市,社会医療法人禎心会病院,昭62.8.25,昭62.9.1,007-0844,札幌市東区北44条東8丁目1番6号,19,社会医療法人禎心会,徳田　禎久,循環器内科|整|形|脳|リハ|放|麻|ペインクリニック外科|消化器内科|神経内科,○,011-712-1131,43.1146781,141.3561369,143,143,,,,,,
134,札幌市,札幌心臓血管クリニック,平25.4.5,平15.5.1,007-0849,札幌市東区北49条東16丁目8番1号,19,医療法人　札幌ハートセンター,道井　洋吏,内|循環器内科|心臓内科|心外|麻,○,011-784-7847,43.122716,141.3653967,74,74,,,,,,
135,札幌市,医療法人社団豊生会　東苗穂病院,平7.4.24,平7.5.9,007-0803,札幌市東区東苗穂3条1丁目2番18号,19,医療法人社団豊生会,星野　豊,内|呼吸器内科|消化器内科|循環器内科|神内|腎臓内科（人工透析）|リハ|歯|老年脳神経外科|心外|放,,011-784-1121,43.088144,141.3995682,161,60,101,,,,,
136,札幌市,勤医協中央病院,平24.3.13,平25.5.1,007-0805,札幌市東区東苗穂5条1丁目9番1号,18,公益社団法人北海道勤労者医療協会,田村　裕昭,内|外|整|麻|放射線治療科|眼|婦|リハ|精|心外|呼外|泌|乳腺外科|肛門外科|呼吸器内科|消化器内科|循環器内科|消化器外科|緩和ケア内科|リウ|「糖尿病|内分泌内科」|腎臓内科|肝臓外科|膵臓外科|放射線診断科|病理診断科|救急科|血液内科,○,011-782-9111,43.0914688,141.403087,450,450,,,,,,
137,札幌市,医療法人社団英仁会　札苗病院,昭63.3.24,昭63.4.1,007-0807,札幌市東区東苗穂7条2丁目8番20号,19,医療法人社団英仁会,富樫　光宏,内|消化器内科|循環器内科|リハ,,011-783-3311,43.0951103,141.412222,108,24,84,,,,,
138,札幌市,医療法人社団大蔵会　札幌佐藤病院,平3.8.27,平3.9.1,007-0862,札幌市東区伏古2条4丁目10番15号,19,医療法人社団大蔵会札幌佐藤病院　,三浦　寛高,内|心内|精|神経精神科|整|リハ|歯|小歯|歯外,,011-781-5511,43.0829583,141.3920416,244,,,244,,,,
139,札幌市,特定医療法人朋仁会　整形外科北新東病院,平7.12.14,平8.1.1,007-0865,札幌市東区伏古5条3丁目3番2号,19,特定医療法人朋仁会,広田　誼,整|リハ|麻,○,011-782-8339,43.0883438,141.3917467,60,60,,,,,,
140,札幌市,医療法人彰和会　北海道消化器科病院,平5.4.27,平5.5.1,065-0041,札幌市東区本町1条1丁目2番10号,19,医療法人彰和会,堀田　彰一,内|消化器内科|消化器外科|外|腫瘍内科|肛門外科|放|麻|病理診断科,,011-784-1811,43.0804666,141.3787679,211,211,,,,,,
141,札幌市,社会医療法人社団三草会　クラーク病院,平5.4.21,平5.5.1,065-0042,札幌市東区本町2条4丁目8番20号,19,社会医療法人社団三草会,木村　敏信,内|消化器内科|循環器内科|リウ|整|泌|リハ|麻,○,011-782-6160,43.0797142,141.3896533,225,225,,,,,,
143,札幌市,医療法人社団三樹会病院,昭60.5.20,昭61.6.1,003-0002,札幌市白石区東札幌2条3丁目6番10号,19,医療法人社団三樹会病院,中嶋　久雄,皮|泌|放|麻,,011-824-3131,43.0491728,141.3870468,99,99,,,,,,
144,札幌市,医療法人東札幌病院,平2.10.24,平2.11.1,003-0003,札幌市白石区東札幌3条3丁目7番35号,19,医療法人東札幌病院,照井　健,内|呼吸器内科|消化器内科|循環器内科|糖尿病内科|血液内科|腫瘍内科|緩和ケア内科|心内|外|消化器外科|「胃|大腸|肛門外科」|乳腺外科|内分泌外科|放|歯|歯外|麻,,011-812-2311,43.0506893,141.3876439,243,243,,,,,,
145,札幌市,医療法人社団明日佳　白石明日佳病院,平23.3.22,平23.4.1,003-0005,札幌市白石区東札幌5条5丁目2番5号,19,医療法人社団明日佳,佐々木　正則,内|循環器内科|リハ|歯,,011-823-5151,43.0508647,141.3947531,99,,99,,,,,
146,札幌市,医療法人社団明珠会　札幌白石産科婦人科病院,平7.5.22,平7.6.1,003-0005,札幌市白石区東札幌5条6丁目6番28号,19,医療法人社団明珠会,明石　祐史,産|婦|麻|新生児内科,,011-862-7211,43.0482327,141.3983619,41,41,,,,,○,
147,札幌市,社会医療法人北楡会　札幌北楡病院,平6.6.10,平6.7.1,003-0006,札幌市白石区東札幌6条6丁目5番1号,19,社会医療法人北楡会,米川　元樹,内|消化器内科|呼吸器内科|循環器内科|血液内科|腎臓内科|糖尿病代謝内科|緩和ケア内科|外|腎臓移植外科|整|泌|小|放|麻|歯|肛門外科|消化器外科,○,011-865-0111,43.0490676,141.3992205,281,281,,,,,,
148,札幌市,医療法人社団同仁会　長野病院,昭47.7.25,昭47.8.1,003-0013,札幌市白石区中央3条5丁目4番30号,19,医療法人社団同仁会,長野　方紀,内|精|神|心内,,011-861-1037,43.060375,141.4028669,306,,,306,,,,
149,札幌市,医療法人杏医会　札幌呼吸器科病院,平4.4.21,平4.5.1,003-0021,札幌市白石区栄通3丁目3番35号,19,医療法人杏医会,井上　祐二,内|呼吸器内科|消化器内科|循環器内科|アレ|リハ,,011-853-5311,43.0402767,141.400718,52,52,,,,,,
150,札幌市,医療法人社団豊武会　幌東病院,平9.12.19,平10.1.1,003-0024,札幌市白石区本郷通7丁目南4番30号,19,医療法人社団豊武会,瀧川　義昭,内,,011-861-4121,43.0418353,141.4128112,240,,240,,,,,
151,札幌市,医療法人信佑会　吉田記念病院,平7.12.13,平8.1.1,003-0026,札幌市白石区本通2丁目南5番10号,19,医療法人社団信佑会吉田記念病院,國田　芳敬,内|消化器内科|循環器内科|放|リハ,,011-864-2125,43.0498543,141.4063687,89,33,56,,,,,
152,札幌市,札幌白石記念病院,平23.8.9,平23.9.21,003-0026,札幌市白石区本通8丁目南1番10号,19,特定医療法人　医翔会,野中　雅,循環器内科|脳|リハ|放|麻,,011-863-5151,43.0432251,141.4165957,103,103,,,,,,
153,札幌市,社会医療法人恵佑会第２病院,平24.2.1,平24.3.1,003-0027,札幌市白石区本通13丁目北7番1号,19,社会医療法人恵佑会,高橋　宏明,内|消化器内科|放射線診断科,,011-863-2111,43.0411998,141.4267072,135,135,,,,,,
154,札幌市,社会医療法人恵佑会札幌病院,昭59.4.21,昭59.5.1,003-0027,札幌市白石区本通14丁目北1番1号,19,社会医療法人恵佑会,平川　和志,"呼吸器外科|消化器外科|消化器内科|腫瘍内科|緩和ケア内科|外|乳腺外科|頭頸部外科|耳|気管食道外科|放射線診断科|放射線治療科|歯|麻|歯外|泌|アレ|病理診断科|美容外科|形成外科
",○,011-863-2101,43.0396972,141.4275488,229,229,,,,,,
155,札幌市,医療法人白石中央病院,昭52.10.31,昭52.11.1,003-0029,札幌市白石区平和通3丁目北2番3号,19,医療法人白石中央病院,三樹　忍,内|外|整,,011-861-8171,43.0534703,141.4117746,96,50,46,,,,,
156,札幌市,勤医協札幌病院,昭38.10.17,昭38.12.18,003-0804,札幌市白石区菊水4条1丁目9番22号,18,公益社団法人北海道勤労者医療協会,尾形　和泰,内|精|神|消|呼|循|小|外|整|皮|産|婦|眼|耳|リハ|放|アレ|リウ|心内|麻,,011-811-2246,43.0595049,141.373178,105,105,,,,,○,
157,札幌市,独立行政法人国立病院機構北海道がんセンター,昭20.12.1,昭20.12.1,003-0804,札幌市白石区菊水4条2丁目3-54,1,独立行政法人国立病院機構,近藤　啓史,呼吸器内科|消化器内科|循環器内科|血液内科|消化器外科|呼吸器外科|乳腺外科|腫瘍整形外科|精|皮|泌|婦|眼|頭頸部外科|放射線診断科|放射線治療科|麻|脳|心外|形|緩和ケア内科|病理診断科|臨床検査科|リハ|歯外,○,011-811-9111,43.0586661,141.3748334,520,520,,,,,,
158,札幌市,特定医療法人朋仁会　整形外科北新病院,平7.12.13,平8.1.1,003-0823,札幌市白石区菊水元町3条3丁目1番18号,19,医療法人社団朋仁会,古御堂　均,整|リハ|麻,○,011-871-3660,43.0669883,141.4029666,52,52,,,,,,
159,札幌市,医療法人菊郷会　札幌センチュリー病院,平8.12.19,平9.1.1,003-0825,札幌市白石区菊水元町5条3丁目5番10号,19,医療法人菊郷会,河上　純彦,内|消|循|外|整|泌|乳腺外科|麻,○,011-871-1121,43.0686216,141.4073104,150,150,,,,,,
160,札幌市,医療福祉センター札幌あゆみの園,平11.4.26,平11.12.1,003-0859,札幌市白石区川北2254番地1,22,社会福祉法人北翔会,篠原　義文,内|小|精|神|歯|麻,,011-879-5555,43.0714084,141.4392876,186,94,92,,,,,
161,札幌市,医療法人菊郷会　石橋胃腸病院,平20.10.16,平20.11.1,003-0863,札幌市白石区川下3条4丁目2番1号,19,医療法人菊郷会,佐藤　幸作,内|消化器内科,,011-872-5811,43.04885,141.4454411,90,50,40,,,,,
162,札幌市,社会医療法人共栄会　札幌トロイカ病院,平3.12.20,平4.1.1,003-0869,札幌市白石区川下577番地8,19,社会医療法人共栄会,有田　矩明,内|精|歯,,011-873-1221,43.0674479,141.4450845,419,,,419,,,,
163,札幌市,医療法人社団幸仁会　札幌ロイヤル病院,平7.8.30,平7.9.1,003-0875,札幌市白石区米里5条1丁目3番30号,19,医療法人社団幸仁会札幌ロイヤル病院,長沼　政幸,内|精|神,,011-872-0121,43.085573,141.4292016,258,,,258,,,,
165,札幌市,勇気会医療法人　北央病院,平7.1.5,平7.1.14,004-0021,札幌市厚別区青葉町11丁目2番10号,19,勇気会医療法人北央病院,古家　隆司,内|消化器内科|消化器外科|外|肛門外科|腫瘍内科|血液内科|麻,○,011-892-8531,43.0375129,141.4810998,125,77,48,,,,,
166,札幌市,医療法人社団悠仁会　羊ヶ丘病院,平24.1.16,平24.2.13,004-0021,札幌市厚別区青葉町3丁目1番10号,19,医療法人社団悠仁会羊ヶ丘病院,岡村　健司,内|整|リハ|麻,○,011-351-2211,43.0351743,141.4750421,68,68,,,,,,
167,札幌市,医療法人新さっぽろ脳神経外科病院,平3.12.20,平4.1.1,004-0031,札幌市厚別区上野幌1条2丁目1番10号,19,医療法人新さっぽろ脳神経外科病院,山村　明範,脳|リハ|麻|神内,○,011-891-2500,43.0228033,141.469035,135,135,,,,,,○
168,札幌市,医療法人豊和会　新札幌豊和会病院,平27.3.3,平27.4.1,004-0041,札幌市厚別区大谷地東2丁目5番12号,19,医療法人豊和会,北川　真吾,内|消化器内科|消化器外科|循環器内科|外|大腸|肛門外科|麻|腫瘍内科|腫瘍外科|乳腺外科|ペインクリニック外科 |人工透析外科,○,011-893-7000,43.0291164,141.4534194,105,105,,,,,,
169,札幌市,社会医療法人禎心会　新札幌恵愛会病院,平18.8.22,平18.9.1,004-0041,札幌市厚別区大谷地東5丁目5番35号,19,社会医療法人禎心会,八十島　孝博,内|呼吸器内科|消化器内科|消化器外科|循環器内科|外|整|肛門外科|リハ|麻|腫瘍外科|乳腺外科,,011-893-7000,43.0241308,141.4567444,86,86,,,,,,
170,札幌市,医療法人重仁会　大谷地病院,昭54.5.30,昭54.6.4,004-0041,札幌市厚別区大谷地東5丁目7番10号,19,医療法人重仁会,田尾　大樹,内|精|神|呼|消|心内,,011-891-3737,43.0227588,141.4584276,315,,50,265,,,,
171,札幌市,新札幌循環器病院,昭62.12.24,昭63.5.1,004-0052,札幌市厚別区厚別中央2条4丁目9番25号,19,医療法人サンプラザ,佐々木　孝,腎臓内科|循環器内科|人工透析内科|心外|胸部外科|リハ,○,011-892-1556,43.0377001,141.4690293,99,99,,,,,,
172,札幌市,独立行政法人地域医療機能推進機構札幌北辰病院,平2.5.8,平2.6.1,004-8618,札幌市厚別区厚別中央2条6丁目2番1号,22,独立行政法人地域医療機能推進機構,佐々木　文章,内|呼吸器内科|消化器内科|消化器外科|循環器内科|リウ|小|外|整|皮|泌|産婦|眼|耳|リハ|麻|放射線診断科|病理診断科|血液内科|腎臓内科|糖尿病内科|乳腺外科,○,011-893-3000,43.0420125,141.4737891,276,276,,,,,○,
173,札幌市,医療法人潤和会　札幌ひばりが丘病院,平元.7.12,平元.8.1,004-0053,札幌市厚別区厚別中央3条2丁目12番1号,19,医療法人潤和会,髙橋　大賀,"内|呼吸器内科|消化器内科|リハ|整|緩和ケア内科|老年内科
",,011-894-7070,43.0356353,141.4609739,176,118,58,,,,,
174,札幌市,医療法人社団豊志会　肛門科なかやま病院,平3.8.27,平3.9.1,004-0054,札幌市厚別区厚別中央4条4丁目2番8号,19,医療法人社団豊志会,丸山　芳朗,肛,,011-894-5555,43.0435095,141.4646815,47,47,,,,,,
175,札幌市,医療法人中山会　新札幌パウロ病院,平6.4.9,平6.4.9,004-0002,札幌市厚別区厚別東2条6丁目4番1号,19,医療法人中山会,高階　俊光,内|消化器内科|循環器内科|リハ|歯,,011-897-4111,43.04654,141.4899237,393,,393,,,,,
176,札幌市,医療法人社団翔嶺館　新札幌聖陵ホスピタル,平15.4.4,平15.5.1,004-0004,札幌市厚別区厚別東4条2丁目1番30号,19,医療法人社団翔嶺館,武田　聰,内|消化器内科|肝臓内科|外|麻|脳|リハ|人工透析外科,,011-898-2151,43.044815,141.4802801,60,60,,,,,,
177,札幌市,医療法人記念塔病院,平16.12.9,平17.1.1,004-0004,札幌市厚別区厚別東4条3丁目3-6,19,医療法人記念塔病院,北澤　俊治,内|消化器内科|循環器内科|皮|外|リハ,,011-898-1521,43.0481758,141.4817049,170,,170,,,,,
178,札幌市,医療法人徳洲会　札幌徳洲会病院,昭58.4.15,昭58.5.1,004-0041,札幌市厚別区大谷地東1丁目1番1号,19,医療法人徳洲会,奥山　淳,内|消化器内科|胃腸内科|循環器内科|小|外|整|形|皮|泌|産婦|肛門外科|麻|眼|耳|脳|リハ|放|歯|歯外|病理診断科|アレ|乳腺外科,○,011-851-1110,43.0292661,141.4479226,301,301,,,,,○,
179,札幌市,医療法人徹仁会　厚別耳鼻咽喉科病院,平5.12.16,平6.1.1,004-0065,札幌市厚別区厚別西5条1丁目16番22号,19,医療法人徹仁会,木村　徹男,耳|眼,,011-894-7003,43.0521138,141.452993,44,44,,,,,,
180,札幌市,医療法人社団明日佳　桜台明日佳病院,平15.12.22,平16.1.1,004-0065,札幌市厚別区厚別西5条5丁目1番1号,19,医療法人社団明日佳,後藤　哲二,内|循環器内科|リハ|整|精,,011-894-8181,43.0545527,141.4644337,199,　,99,100,,,,
181,札幌市,医療法人新札幌整形外科病院,昭63.12.5,昭64.1.1,004-0022,札幌市厚別区厚別南2丁目2番32号,19,医療法人新札幌整形外科病院,葛西　一元,整|リハ|放|麻|リウ,,011-893-1161,43.0316302,141.4664319,88,88,,,,,,
183,札幌市,恵仁会佐々木内科病院,平19.12.18,平20.1.1,062-0007,札幌市豊平区美園7条8丁目6番20号,19,医療法人恵仁会,石井　勝久,内,,011-831-5621,43.0350491,141.3890637,42,42,,,,,,
184,札幌市,医療法人社団　札幌朗愛会　札幌朗愛会病院,昭59.12.15,昭60.1.1,062-0021,札幌市豊平区月寒西1条10丁目3番30号,19,医療法人社団　札幌朗愛会,井出　雅弘,内|神内|心内,,011-853-2111,43.0256449,141.3970302,98,98,,,,,,
185,札幌市,医療法人社団北樹会病院,平4.8.20,平4.9.1,062-0025,札幌市豊平区月寒西5条8丁目4-32,19,医療法人社団北樹会病院,髙橋　雅俊,内|神内|消|循|リハ|歯|小歯|歯外,,011-856-1111,43.0258168,141.3866006,281,120,161,,,,,
186,札幌市,社会医療法人　仁陽会　西岡第一病院,平3.1.20,平3.2.1,062-0033,札幌市豊平区西岡3条6丁目8番1号,19,社会医療法人　仁陽会,皆川　裕樹,内|消|整|リハ|麻|リウ,○,011-852-7171,43.0129934,141.3875402,103,103,,,,,,
187,札幌市,西岡病院,昭59.12.15,昭60.1.1,062-0034,札幌市豊平区西岡4条4丁目1番52号,19,社会医療法人恵和会,中島　茂夫,内|呼吸器内科|循環器内科|消化器内科,,011-853-8322,43.0162625,141.3885621,98,48,50,,,,,
188,札幌市,医療法人小坂病院,平5.9.27,平5.10.1,062-0042,札幌市豊平区福住2条2丁目9番1号,19,医療法人小坂病院,小坂　昌道,内,,011-854-3161,43.0170933,141.4021747,99,,99,,,,,
189,札幌市,医療法人社団光進会　札幌月寒病院,平15.8.15,平15.9.1,062-0051,札幌市豊平区月寒東1条13丁目4-5,19,医療法人社団光進会札幌月寒病院,山光　進,呼|消|循|外|肛|麻,○,011-852-6777,43.0221983,141.4034632,92,92,,,,,,
190,札幌市,医療法人柏葉脳神経外科病院,昭55.4.25,昭55.5.1,062-0051,札幌市豊平区月寒東1条15丁目7番20号,19,医療法人柏葉脳神経外科病院,金子　貞男,脳|神内|循|リハ|精|麻|放,○,011-851-2333,43.0194182,141.4071019,144,144,,,,,,○
191,札幌市,社会医療法人康和会　札幌しらかば台病院,昭62.12.25,昭63.2.1,062-0052,札幌市豊平区月寒東2条18丁目7番26号,19,社会医療法人康和会,遠藤　高夫,内|消|循|神内|整|リハ|アレ|リウ,,011-852-8866,43.0178577,141.421123,262,162,100,,,,,
192,札幌市,医療法人豊和会　豊和会札幌病院,平8.8.15,平8.9.1,062-0905,札幌市豊平区豊平5条2丁目3番7号,19,医療法人豊和会,森　和久,内|外|整|呼吸器内科|消化器内科|循環器内科,,011-821-1852,43.0524331,141.3670262,35,35,,,,,,
193,札幌市,医療法人北志会　札幌ライラック病院,平10.12.15,平11.1.1,062-0906,札幌市豊平区豊平6条8丁目2番18号,19,医療法人北志会,本庄　恭輔,内|神内|消化器内科|整|リハ|麻,,011-812-8822,43.0466525,141.3724358,167,131,36,,,,,
194,札幌市,独立行政法人地域医療機能推進機構北海道病院,昭33.9.1,昭33.9.1,062-0921,札幌市豊平区中の島1条8丁目3番18号,22,独立行政法人地域医療機能推進機構,河田　哲也,内|呼吸器内科|消化器内科|小|小(新生児)|外|整|皮|泌|産婦|眼|耳|放射線診断科|麻|心外|リウ|神内|腎臓内科|呼吸器外科|病理診断科|心臓内科|「糖尿病|内分泌内科」,○,011-831-5151,43.0257027,141.35607,358,312,,,46,,○,
195,札幌市,ＫＫＲ札幌医療センター,昭27.11.20,昭27.11.27,062-0931,札幌市豊平区平岸1条6丁目3番40号,16,国家公務員共済組合連合会,赤坂　嘉宜,内|呼吸器内科|消化器内科|循環器内科|神内|腫瘍内科|外|消化器外科|呼外|乳腺外科|小児外科|脳|整|精|眼|皮|産婦|麻|耳|泌|放|放射線診断科|リハ|病理診断科|救急科|小|小児科(新生児)|「代謝|内分泌内科」|緩和ケア内科|腫瘍外科|人工透析外科|内分泌外科|心臓外科|血管外科|臨床検査科|心臓血管外科|「脳神経|内分泌外科」,○,011-822-1811,43.0364239,141.3672184,450,450,,,,,○,○
196,札幌市,医療法人社団高台病院,平9.12.19,平10.1.1,062-0937,札幌市豊平区平岸7条12丁目1-39,19,医療法人社団高台病院,藤井　充,内|精|神,,011-831-8161,43.0276416,141.381837,106,,,106,,,,
197,札幌市,医療法人北海道整形外科記念病院,平2.1.11,平2.2.1,062-0937,札幌市豊平区平岸7条13丁目5番22号,19,医療法人北海道整形外科記念病院,加藤　貞利,整|リハ|麻|リウ,○,011-812-7001,43.0248558,141.3818122,225,225,,,,,,
199,札幌市,札幌医療生活協同組合札幌南青洲病院,昭62.7.15,昭62.7.15,004-0801,札幌市清田区里塚1条2丁目20番1号,22,札幌医療生活協同組合,四十坊　克也,内|呼吸器内科|循環器内科|消化器内科|リハ|腎臓内科|糖尿病内科|緩和ケア内科|漢方内科,,011-883-0602,42.989129,141.4603407,88,88,　,,,,,
200,札幌市,社会医療法人蘭友会　札幌里塚病院,昭63.12.20,昭64.1.1,004-0811,札幌市清田区美しが丘1条6丁目1番5号,19,社会医療法人蘭友会,足立　英明,内|消化器内科|循環器内科|外|消化器外科|肛門外科|内視鏡外科|整|リハ|麻,○,011-883-1200,42.9826186,141.4595634,99,99,,,,,,
201,札幌市,社会医療法人　札幌清田病院,平4.4.21,平4.5.1,004-0831,札幌市清田区真栄1条1丁目1番1号,19,社会医療法人　札幌清田病院,山内　尚文,内|消化器内科|循環器内科|呼吸器内科|血液内科|リウ|外|肛門外科|消化器外科|内視鏡外科|腫瘍内科|緩和ケア内科,,011-883-6111,42.9991188,141.4390975,109,109,,,,,,
202,札幌市,医療法人北武会　美しが丘病院,昭62.11.28,昭62.12.21,004-0833,札幌市清田区真栄61番1,19,医療法人北武会,慶松　元興,内|リハ,,011-883-8881,42.9931973,141.4377563,172,,172,,,,,
203,札幌市,医療法人社団五風会　さっぽろ香雪病院,平6.4.22,平6.5.1,004-0839,札幌市清田区真栄319番地,19,医療法人社団五風会,森　一也,内|精|神|歯|心内,,011-884-6878,42.9761717,141.4449705,450,,,450,,,,
204,札幌市,医療法人尚仁会　真栄病院,昭57.9.14,昭57.9.21,004-0839,札幌市清田区真栄331番地,19,医療法人尚仁会,小笠原　俊夫,内|リハ|神内,,011-883-1122,42.9784687,141.4440844,166,55,111,,,,,
205,札幌市,社会医療法人　札幌清田整形外科病院,平2.1.11,平2.2.1,004-0841,札幌市清田区清田1条4丁目1番50号,19,社会医療法人　札幌清田整形外科病院,片平　弦一郎,整|リハ|麻|リウ,○,011-881-2222,42.9994327,141.4400807,109,54,55,,,,,
206,札幌市,医療法人社団図南会　あしりべつ病院,昭49.2.7,昭49.3.1,004-0841,札幌市清田区清田1条4丁目4番35号,19,医療法人社団図南会,柏倉　慎,内|精|神|歯|放,,011-881-2626,43.0002215,141.4422749,342,,,342,,,,
207,札幌市,北海道医療生協札幌緑愛病院,昭58.9.8,昭58.10.1,004-0861,札幌市清田区北野1条1丁目6番30号,22,北海道医療生活協同組合,篠島　文隆,内|外|形|皮|リハ|放|消化器内科|消化器外科|肝臓内科|肝臓外科|循環器内科|心臓リハビリテーション科,,011-883-0121,43.0089312,141.4261453,135,101,34,,,,,
208,札幌市,医療法人社団エス・エス・ジェイ　札幌整形循環器病院,昭63.7.1,昭63.7.1,004-0861,札幌市清田区北野1条2丁目11番30号,19,医療法人社団エス・エス・ジェイ,長谷川　匡一,内|消化器内科|心臓血管内科|整|リハ|放|麻,○,011-881-1100,43.0068316,141.4310561,181,120,61,,,,,
209,札幌市,医療法人札幌平岡病院,平10.9.29,平10.10.1,004-0872,札幌市清田区平岡2条1丁目15番20号,19,医療法人札幌平岡病院,末松　克美,内|リハ|神内,,011-881-3711,43.0007522,141.4474633,240,60,180,,,,,
211,札幌市,仁楡会病院,平9.12.19,平10.1.1,005-0002,札幌市南区澄川2条1丁目3-8,19,医療法人仁楡会,松村　欣也,泌|血管外科|麻,,011-814-9911,43.0190201,141.3628115,100,100,,,,,,
212,札幌市,医療法人社団林下病院,平7.8.25,平7.9.1,005-0004,札幌市南区澄川4条5丁目9番38号,19,医療法人社団林下病院,林下　忠行,内|精|消化器内科,,011-821-6155,43.011257,141.3676004,145,,,145,,,,
213,札幌市,医療法人三和会　札幌南整形外科病院,平2.1.12,平2.2.1,005-0033,札幌市南区南33条西11丁目4番1号,19,医療法人三和会札幌南整形外科病院,早川　満,整|リハ|麻,○,011-581-2555,43.0139451,141.3456522,120,120,,,,,,
214,札幌市,医療法人為久会　札幌共立五輪橋病院,平22.1.28,平22.2.1,005-0802,札幌市南区川沿2条1丁目2番54号,19,医療法人為久会,本間　久登,内|循環器内科|消化器内科|呼吸器内科|血液内科|腎臓内科|腫瘍内科|消化器外科|アレ|皮|リハ|放|神内|緩和ケア内科|肝臓内科|麻,,011-571-8221,42.9982476,141.3386864,188,188,,,,,,
215,札幌市,社会医療法人孝仁会　五輪橋産科婦人科小児科病院,平9.12.19,平10.1.1,005-0802,札幌市南区川沿2条1丁目2番55号,19,社会医療法人孝仁会　　,眞名瀬　賢吾,小|産|婦|麻,,011-571-3110,42.9987547,141.3385592,61,61,,,,,○,
216,札幌市,医療法人五輪橋整形外科病院,昭59.2.2,昭59.3.1,005-0802,札幌市南区川沿2条1丁目2番56号,19,医療法人五輪橋整形外科病院,佐藤　直一,整|リウ|リハ|麻,○,011-571-2001,42.9989102,141.3381981,95,95,,,,,,
217,札幌市,社会医療法人医仁会　中村記念南病院,平15.6.9,平15.6.16,005-0802,札幌市南区川沿2条2丁目3番1号,19,社会医療法人　医仁会,岡　亨治,脳|神内|リハ,○,011-573-8555,42.997577,141.3356234,173,173,,,,,,
218,札幌市,医療法人愛全病院,昭47.1.25,昭47.3.1,005-0813,札幌市南区川沿13条2丁目1番38号,19,医療法人愛全会,島崎　孝志,内|消化器内科|循環器内科|呼吸器内科|リハ|歯,,011-571-5670,42.9793958,141.3330547,609,186,423,,,,,
219,札幌市,札幌逓信病院,,昭30.6.1,005-0814,札幌市南区川沿14条1丁目5番1号,21,日本郵政株式会社,小笹　茂,内|消化器内科|循環器内科|外|整|眼|耳,,011-571-5101,42.9765962,141.3373378,98,98,,,,,,
220,札幌市,医療法人広誠会　北ノ沢病院,昭53.4.6,昭53.5.1,005-0832,札幌市南区北ノ沢1732番地,19,医療法人広誠会,土本　啓幾,内|精,,011-571-7011,43.0074864,141.3140608,180,,,180,,,,
221,札幌市,医療法人社団信洋会　石山病院,平9.12.19,平10.1.1,005-0842,札幌市南区石山2条8丁目2番12号,19,医療法人社団信洋会,菅原 多恵子,内|精|神,,011-591-7167,42.960231,141.3184455,60,,,60,,,,
222,札幌市,医療法人札幌エルム病院,平6.11.30,平7.1.1,005-0849,札幌市南区石山1048番地1の2,19,医療法人札幌エルム病院,金澤　卓也,内,,011-591-2886,42.9404337,141.3303758,120,,120,,,,,
223,札幌市,医療法人大空　札幌南病院,平23.3.4,平23.4.1,005-0850,札幌市南区石山東7丁目1番28号,19,医療法人大空,小松本　正志,内|外|リハ|歯,,011-591-1200,42.9544991,141.3435437,100,50,50,,,,,
224,札幌市,自衛隊札幌病院,,平27.3.26,005-0008,札幌市南区真駒内１７番地,4,防衛大臣,千先　康二,内|外|脳外|整|精|小|皮|泌|産婦|眼|耳|リハ|放|歯|麻,○,011-831-0161,42.9917339,141.358466,200,170,,30,,,○,
225,札幌市,医療法人五月会　小笠原クリニック札幌病院,平22.11.17,平22.12.27,005-0013,札幌市南区真駒内緑町1丁目2番1号,19,医療法人五月会,宮坂　祐司,内|呼外|消化器内科|消化器外科|循環器内科|外|整|形|心外|泌|肛|リハ|麻|乳外,○,011-583-2000,42.9943728,141.3490506,80,80,,,,,,
226,札幌市,ときわ病院,昭58.3.17,昭58.4.1,005-0853,札幌市南区常盤3条1丁目6番1号,19,特定医療法人　さっぽろ悠心の郷,宮澤　仁朗,内|精,,011-591-4711,42.9435643,141.3444164,206,,,206,,,,
227,札幌市,社会医療法人康和会　札幌しらかば台南病院,平19.7.25,平19.8.1,061-2282,札幌市南区藤野2条11丁目7番1号,19,社会医療法人康和会,高田　茂,内|消|リハ,,011-596-2621,42.9615157,141.2791179,60,,60,,,,,
228,札幌市,定山渓病院,昭56.4.28,昭56.5.15,061-2303,札幌市南区定山渓温泉西3丁目71番地,19,医療法人渓仁会,中川　翼,内|リハ|歯|神内,,011-598-3323,42.9684615,141.1645612,386,141,245,,,,,
230,札幌市,緑ヶ丘療育園,昭48.3.24,昭48.6.1,063-0003,札幌市西区山の手3条12丁目3番12号,22,社会福祉法人札幌緑花会,皆川　公夫,内|小|精,,011-611-9301,43.0642955,141.2881544,166,,,166,,,,
231,札幌市,医療法人　西さっぽろ病院,平6.9.12,平6.10.1,063-0003,札幌市西区山の手3条2丁目5番1号,19,医療法人　西さっぽろ病院,上井　直樹,内科（消化器）|外科（消化器）|「大腸|肛門外科」,○,011-611-6611,43.0720145,141.2982058,56,56,,,,,,
232,札幌市,医療法人耕仁会　札幌太田病院,昭32.1.1,昭32.3.1,063-0005,札幌市西区山の手5条5丁目1番1号,19,医療法人耕仁会,太田　健介,内|心内|精|神内|放|児童精神科|老年精神科|老年心療内科,,011-644-5111,43.0710281,141.2926369,234,,32,202,,,,
233,札幌市,独立行政法人国立病院機構　北海道医療センター,昭5.10　　,,063-0005,札幌市西区山の手5条7丁目1番1号,1,独立行政法人国立病院機構,菊地　誠志,内|心内|精|神内|アレ|リウ|小|小児外科|外|整|呼吸器内科|呼吸器外科|消化器内科|循環器内科|腎臓内科|「糖尿病|脂質代謝内科」|脳|心外|皮|耳|泌|婦|眼|リハ|放|救|麻|形,○,011-611-8111,43.0688532,141.2894123,500,410,,40,50,,,
234,札幌市,医療法人札幌山の上病院,平7.4.18,平7.5.1,063-0006,札幌市西区山の手6条9丁目1番1号,19,医療法人札幌山の上病院,蕨　建夫,内|消化器内科|呼吸器内科|循環器内科|神内|整|脳|リハ|リウ|放|老年内科,,011-621-1200,43.069853,141.2867986,288,288,,,,,,
235,札幌市,医療法人札幌西の峰病院,平6.4.22,平6.5.1,063-0022,札幌市西区平和2条5丁目10番1号,19,医療法人札幌西の峰病院,西岡　信博,内|神経精神科|老年精神科,,011-661-8060,43.0560569,141.2560901,157,,,157,,,,
236,札幌市,医療法人社団静和会　平和病院　,平6.12.22,平7.1.1,063-0022,札幌市西区平和2条11丁目2番1号,19,医療法人社団静和会　,黒田　練介,内|循|消|呼,,011-662-2525,43.0569732,141.2436384,140,,140,,,,,
237,札幌市,医療法人社団静和会　平和リハビリテーション病院,平14.1.21,平14.5.1,063-0029,札幌市西区平和306番1,19,医療法人社団静和会,岡部　實裕　,内|外|整|リハ,,011-662-1771,43.05604,141.2428718,120,,120,,,,,
238,札幌市,医療法人山の手通八木病院,平6.4.22,平6.5.1,063-0033,札幌市西区西野3条5丁目1番35号,19,医療法人山の手通八木病院,八木　知徳,内|整|リハ|リウ|麻,,011-663-3100,43.0770797,141.2779376,120,120,,,,,,
239,札幌市,社会医療法人孝仁会　心臓血管センター北海道大野病院,平6.4.20,平6.5.1,063-0034,札幌市西区西野4条1丁目1番30号,19,社会医療法人孝仁会,大野　猛三,内|呼|消|循|外|心外|麻|放,○,011-665-0020,43.0712666,141.282671,157,157,,,,,,
240,札幌市,医療法人社団康仁会　中田泌尿器科病院,平15.4.30,H15.11.1,063-0061,札幌市西区西町北5丁目1番5号,19,医療法人社団康仁会中田泌尿器科病院,中田　康信,泌,,011-661-0550,43.0786549,141.2902533,28,28,,,,,,
241,札幌市,勤医協札幌西区病院,昭61.4.19,昭61.5.16,063-0061,札幌市西区西町北19丁目1番5号,18,公益社団法人北海道勤労者医療協会,小市　健一,内|消化器内科|耳|リハ|神内|皮|老年内科,,011-663-5711,43.0867536,141.2769066,192,96,96,,,,,
242,札幌市,医療法人明日佳 札幌宮の沢脳神経外科病院,平8.12.19,平9.1.1,063-0062,札幌市西区西町南20丁目1番30号,19,医療法人明日佳 札幌宮の沢脳神経外科病院,松村　茂樹,脳|リハ|神内|糖尿病内科|整,○,011-664-7111,43.0862536,141.275679,99,99,,,,,,○
243,札幌市,北祐会神経内科病院,昭62.3.24,昭62.4.1,063-0802,札幌市西区二十四軒2条2丁目4番30号,19,医療法人北祐会,森若　文雄,神内|リハ,,011-631-1161,43.0745457,141.3145014,105,105,,,,,,
244,札幌市,医療法人社団深仁会　ふかざわ病院,平10.12.11,平11.1.1,063-0802,札幌市西区二十四軒2条4丁目6番8号,19,医療法人社団深仁会ふかざわ病院,深澤　雅則,整|婦|リハ|リウ,,011-611-1181,43.0714682,141.3120684,60,60,,,,,,
245,札幌市,社会医療法人　アルデバラン　さっぽろ二十四軒病院,平25.11.5,平25.12.1,063-0802,札幌市西区二十四軒2条4丁目7番20号,19,社会医療法人　アルデバラン,深澤　雅則,内|消化器内科|呼吸器内科|「糖尿病|内分泌内科」|リハ|腎臓内科|リウ|循内,,011-641-2281,43.0724208,141.311774,55,55,,,,,,
246,札幌市,社会医療法人孝仁会　札幌第一病院,昭37.8.1,昭37.8.1,063-0804,札幌市西区二十四軒4条3丁目4番26号,19,社会医療法人孝仁会,嵐　方之,内|リウ|外|整|リハ|放|麻,○,011-611-6201,43.0763506,141.3072075,199,110,89,,,,,
247,札幌市,北海道内科リウマチ科病院,平14.2.19,平14.12.8,063-0811,札幌市西区琴似1条3丁目1番45号,19,医療法人清仁会,谷村　一秀,内|循環器内科|リハ|消化器内科|リウ,,011-611-1371,43.0774338,141.3069435,180,120,60,,,,,
248,札幌市,医療法人社団静和会　静和記念病院,平6.12.22,平7.1.1,063-0811,札幌市西区琴似1条5丁目1番1号,19,医療法人社団静和会,草野　満夫,内|整|リハ|脳|外|循環器内科|消化器内科|消化器外科|麻|血液腫瘍内科,○,011-611-1111,43.0748729,141.3048161,95,95,,,,,,
249,札幌市,医療法人発寒中央病院,昭54.6.29,昭54.7.1,063-0825,札幌市西区発寒5条6丁目10番1号,19,医療法人聖愛会,細川　忍,内|呼|消|循|小|リハ|眼,,011-661-2111,43.0881647,141.2871363,108,54,54,,,,,
250,札幌市,医療法人社団　明生会　イムス札幌消化器中央総合病院,昭45.6.11,昭45.7.1,063-0842,札幌市西区八軒2条西1丁目1番1号,19,医療法人社団明生会,丹野　誠志,内|呼吸器内科|消化器内科|消化器外科|循環器内科|糖尿病内科|腎臓内科（人工透析）|泌|整|リハ|麻|放|外|脳,,011-611-1391,43.0829528,141.3100624,183,183,,,,,,
251,札幌市,医療法人社団ひこばえの会　札幌さくら病院,平22.3.17,平22.4.1,063-0849,札幌市西区八軒9条西10丁目1番11号,19,医療法人社団ひこばえの会,今井　利賢,内|外|皮|循環器内科|血管外科,,011-618-2221,43.098134,141.304823,75,75,,,,,,
252,札幌市,医療法人社団研仁会　北海道脳神経外科記念病院,平24.2.29,平24.4.23,063-0869,札幌市西区八軒9条東5丁目1-20,19,医療法人社団研仁会,小柳　泉,脳|リハ|放|歯|小歯|矯歯|神内,○,011-717-2131,43.0851422,141.3262358,134,134,,,,,,○
254,札幌市,医療法人札幌宮の沢病院,平6.12.14,平7.1.1,006-0001,札幌市手稲区西宮の沢1条4丁目14番35号,19,医療法人札幌宮の沢病院,杉本　智,内|呼|消|循|気,,011-685-3838,43.1074263,141.2634957,355,,355,,,,,
255,札幌市,札幌田中病院,平10.12.14,平11.1.1,006-0004,札幌市手稲区西宮の沢4条3丁目3番45号,19,医療法人タナカメディカル,村上　嶽四郎,内|歯|リハ,,011-683-2888,43.1004604,141.2572327,334,,334,,,,,
256,札幌市,医療法人札幌緑誠病院,平9.12.19,平10.1.1,006-0004,札幌市手稲区西宮の沢4条4丁目18番11号,19,医療法人札幌緑誠病院,成松　直人,内|外,,011-683-1199,43.1046266,141.2574019,342,,342,,,,,
257,札幌市,札幌グリーン病院,平4.12.17,平5.1.1,006-0005,札幌市手稲区西宮の沢5条1丁目13-15,19,医療法人桜花会,橋本　博介,内|精|神|心内,,011-662-2338,43.0946693,141.2597688,180,,,180,,,,
258,札幌市,北海道立子ども総合医療・療育センター,平16.7.13,H19.9.1,006-0041,札幌市手稲区金山1条1丁目240?6,5,北海道,鈴木　信寛,小|小児神経内科|新生児内科|小児内分泌内科|小児血液腫瘍内科|小児循環器内科|小外|小児心臓血管外科|小児脳神経外科|小児形成外科|小児眼科|小児耳鼻咽喉科|小児泌尿器科|小児精神科|リハ（小児）|リハ（整形)|整|小児歯科口腔外科|麻|放|産|病理診断科,,011-691-5696,43.1287196,141.2111592,215,215,,,,,○,
259,札幌市,医療法人勉仁会　中垣病院,昭56.6.1,昭56.7.1,006-0041,札幌市手稲区金山1条2丁目1番6号,19,医療法人勉仁会,中垣　葵,内|精|神|歯,,011-682-3011,43.1302193,141.207065,278,,42,236,,,,
260,札幌市,医療法人社団明生会　イムス札幌内科リハビリテーション病院,昭45.6.11,昭45.7.1,006-0049,札幌市手稲区手稲金山124番地,19,医療法人社団明生会,松本　昭範,内|消化器内科|循環器内科|整|リハ,,011-681-2105,43.1215811,141.1957277,150,69,81,,,,,
261,札幌市,医療法人秀友会　札幌秀友会病院,平4.12.8,平5.1.1,006-0805,札幌市手稲区新発寒5条6丁目2番1号,19,医療法人秀友会,村井　宏,内|循|神内|脳|リハ|麻|心外|精,○,011-685-3333,43.1168085,141.2684024,141,141,,,,,,○
262,札幌市,手稲渓仁会病院,昭62.11.30,昭62.12.16,006-0811,札幌市手稲区前田1条12丁目1番40号,19,医療法人渓仁会,成田　吉明,内|外|呼外|心外|整|脳|形|精|リウ|小|皮|泌|産|婦|眼|耳|麻|歯|歯外|小歯|呼吸器内科|循環器内科|消化器内科|血液内科|腎臓内科|消化器外科|頭頸部外科|放射線診療科|放射線治療科|病理診断科|救急科|腫瘍内科|リハ|乳腺外科,○,011-681-8111,43.1222769,141.2431129,595,595,,,,,○,
263,札幌市,社会医療法人　アルデバラン　手稲いなづみ病院,平22.3.18,H22.4.1,006-0813,札幌市手稲区前田3条4丁目2番6号,19,社会医療法人　アルデバラン,齊藤　晋,内|消化器内科|呼吸器内科|「糖尿病|内分泌内科」|リハ|腎臓内科|リウ,,011-685-2200,43.1156254,141.2620536,80,80,,,,,,
264,札幌市,医療法人澤山会　手稲病院,平3.4.30,平3.5.7,006-0816,札幌市手稲区前田6条13丁目8番15号,19,医療法人澤山会,澤山　浩之,精|リハ|心内,,011-683-1111,43.1292485,141.2510204,232,,,232,,,,
265,札幌市,社会医療法人延山会　西成病院,平5.7.1,平5.7.1,006-0832,札幌市手稲区曙2条2丁目2番27号,19,社会医療法人延山会,河口　義憲,内|呼吸器内科|消化器内科|循環器内科|アレ|リウ|糖尿病内科|リハ|漢方内科|外科（肝臓）,,011-681-9321,43.1271873,141.2378407,109,60,49,,,,,
266,札幌市,医療法人福和会　札幌立花病院,昭60.7.2,昭60.7.15,006-0841,札幌市手稲区曙11条2丁目3-12,19,医療法人福和会,立花　肇,内|消|循|リハ|放|心内|アレ|精|麻,,011-683-8718,43.1455905,141.233351,397,225,112,60,,,,
267,札幌市,医療法人北武会　北都病院,平10.8.18,平11.12.15,006-0860,札幌市手稲区手稲山口550番地,19,医療法人北武会,小原　孝雄,内|リハ,,011-683-6667,43.1414931,141.210103,113,,113,,,,,
270,江別,江別市立病院,昭26.４.１,昭26.４.１,067-8585,江別市若草町6番地,6,江別市,梶井　直文,内|精|神内|呼|消|循|小|外|整|皮|泌|産婦|眼|耳|放|麻|リハ,○,011-382-5151,43.1119716,141.545779,337,278,,59,,,○,
271,江別,医療法人英生会野幌病院,平７.４.27,平７.５.１,069-0813,江別市野幌町53番地の5,19,医療法人英生会,野呂　三之,内|呼吸器内科|循環器内科|整|リハ|糖尿病内科,○,011-382-3483,43.0925675,141.5272952,69,23,46,,,,,
272,江別,医療法人渓和会江別病院,平９.３.21,平９.４.１,069-0817,江別市野幌代々木町81番地の6,19,医療法人渓和会江別病院,大森　一吉,内|呼吸器内科|消化器内科|循環器内科|外|整|脳|小外|肛|リハ|放|麻|乳腺外科,○,011-382-1111,43.0930228,141.5194152,200,200,,,,,,○
273,江別,医療法人社団藤花会江別谷藤病院,平10.８.６,平10.９.１,069-0812,江別市幸町22番地1,19,医療法人社団藤花会,谷藤　方俊,内|外|整|形|脳|皮|麻|リハ,○,011-382-5111,43.1005892,141.535147,122,122,,,,,,
274,江別,医療法人友愛会友愛記念病院,平12.６.12,平13.６.１,069-0806,江別市新栄台46番地の1,19,医療法人友愛会,亀井富士人,内|精|リハ|心内|歯,,011-383-4124,43.1086182,141.5120652,212,,133,79,,,,
275,江別,医療法人風のすずらん会江別すずらん病院　,平23.4.8,平24.4.1,067-0064,江別市上江別442番15,19,医療法人風のすずらん会,安田　素次,内|精|神内|心内,,011-384-2100,43.0990313,141.5438133,234,,,234,,,,
276,江別,医療法人社団恵愛会茨戸病院,昭54.３.14,昭54.４.１,061-3248,石狩市花川東128番地14,19,医療法人社団恵愛会茨戸病院,上田　晃生,内|呼吸器内科|消化器内科|循環器内科,,0133-74-3011,43.1683098,141.3432234,173,60,113,,,,,
277,江別,医療法人喬成会花川病院,昭60.12.20,昭61.１.１,061-3207,石狩市花川南7条5丁目2番地,19,医療法人喬成会,憲　　克彦,内|リハ|歯,,0133-73-5311,43.1403206,141.2929214,180,,180,,,,,
278,江別,石狩病院,平４.８.20,平４.９.１,061-3213,石狩市花川北3条3丁目13番地,19,医療法人社団ピエタ会,森川　　満,内|消|循|外|整|泌|肛,○,0133-74-8611,43.163135,141.3103985,110,110,,,,,,
279,江別,医療法人悠気会熊谷病院,平10.12.４,平11.１.１,061-3207,石狩市花川南7条5丁目5番地,19,医療法人悠気会熊谷病院,熊谷　福夫,精|神|心内,,0133-73-5201,43.1396012,141.2941935,119,,,119,,,,
280,江別,石狩幸惺会病院,平11.４.１,平11.４.15,061-3217,石狩市花川北7条2丁目22番地,19,医療法人財団幸惺会,伊藤　文生,内|循|整|脳|放|リハ,○,0133-71-2855,43.1703874,141.3203191,35,35,,,,,,○
281,江別,晴生会病院,平25.２.26,平25.３.１,061-3203,石狩市花川南3条5丁目7番地,19,医療法人晴生会,太田　浩彰,内|リハ,,0133-74-2133,43.1471504,141.3022171,46,46,,,,,,
282,江別,医療法人社団治心会堀江病院,平10.８.13,平10.９.１,061-0218,石狩郡当別町樺戸町106番地21,19,医療法人社団治心会,堀江　信治,内|外|整,,0133-22-3111,43.2186588,141.5267242,58,,58,,,,,
284,千歳,市立千歳市民病院,H11.3.16,H14.9.1,066-8550,千歳市北光2丁目1番1号,6,千歳市,川向　裕司,内|消|循|小|外|整|脳|皮|泌|産婦|眼|耳|麻,○,0123-24-3000,42.8437129,141.6392254,190,190,,,,,○,○
285,千歳,千歳桂病院,H24.5.25,H24.6.1,066-0068,千歳市蘭越97番地の2,19,社会医療法人社団三草会,藤枝　俊儀,内|精,,0123-23-2101,42.8132809,141.5914546,248,,,248,,,,
286,千歳,医療法人同仁会千歳第一病院,H14.11.28,H15.9.22,066-0042,千歳市東雲町1丁目11番地,19,医療法人同仁会,服部  直樹,内|神内|消|外|整|肛|リハ|麻|リウ,○,0123-23-4111,42.8202827,141.648379,82,82,,,,,,
287,千歳,社会医療法人即仁会北広島病院,H27.2.10,H27.4.1,061-1133,北広島市中央6丁目2番地2,19,社会医療法人即仁会,野村  直弘,内|消|循|呼|整|脳,○,011-373-5811,42.9795774,141.5644457,90,50,40,,,,,
288,千歳,医療法人社団豊友会千歳豊友会病院,H14.3.22,H15.3.22,066-0034,千歳市富丘1丁目618番地6,19,医療法人社団豊友会,千葉  圭,内|神内|脳|リハ,○,0123-24-4191,42.8354279,141.643898,101,37,64,,,,,○
289,千歳,特定医療法人修道会本田記念病院,S56.12.28,S57.2.1,061-1364,恵庭市下島松619番地1,19,特定医療法人修道会本田記念病院,本田　稔,精|神内|心内,,0123-36-7111,42.9332271,141.5759554,184,,,184,,,,
290,千歳,医療法人社団西の里恵仁会病院,S62.12.25,S63.2.1,061-1102,北広島市西の里506番地,19,医療法人社団西の里恵仁会病院,湯浅　芳樹,内|リハ,,011-375-3225,43.0137078,141.4983163,234,,234,,,,,
291,千歳,医療法人盟侑会島松病院,S62.12.25,S63.2.1,061-1356,恵庭市西島松570番地,19,医療法人盟侑会,木村　永一,内|精|神,,0123-36-5181,42.9109272,141.560702,172,,,172,,,,
292,千歳,医療法人資生会千歳病院,H18.1.23,H18.11.27,066-0067,千歳市桂木1丁目5番6号,19,医療法人資生会,小林　一利,内|精|神|心内,,0123-40-0700,42.8200264,141.6247228,168,,,168,,,,
293,千歳,医療法人社団尾谷病院,H1.4.20,H1.5.1,066-0037,千歳市新富2丁目5番5号,19,医療法人社団尾谷病院,尾谷  浩,内|消|循,○,0123-24-5121,42.8330141,141.6369765,20,20,,,,,,
294,千歳,医療法人北晨会恵み野病院,H2.7.31,H2.8.1,061-1395,恵庭市恵み野西2丁目3番地5,19,医療法人北晨会,貝嶋　光信,内|呼吸器内科|消化器内科|循環器内科|小|外|整|形|脳|呼外|心外|皮|泌|放|麻|糖尿病内科|リハ,○,0123-36-7555,42.9004348,141.5775871,200,200,,,,,,○
295,千歳,医療法人社団哲栄会順天病院,H3.4.26,H3.5.1,061-1270,北広島市大曲695番地,19,医療法人社団哲栄会,相原　稔彦,内|リハ|歯,,011-376-3451,43.0048753,141.4924784,120,,120,,,,,
296,千歳,医療法人社団いずみ会北星病院,H7.12.5,H9.5.1,066-0081,千歳市清流5丁目1番1号,19,医療法人社団いずみ会,遠藤　昭,内|整|リハ|麻|リウ,○,0123-24-1121,42.8422998,141.6587627,140,40,100,,,,,
297,千歳,医療法人社団尾形病院,H7.12.28,H8.3.1,061-1352,恵庭市島松仲町1丁目4番11号,19,医療法人社団尾形病院,尾形　昭彦,内|消|外,,0123-37-3737,42.9208678,141.5752004,44,6,38,,,,,
298,千歳,医療法人浩仁会恵庭第一病院,H18.8.7,H18.9.1,061-1447,恵庭市福住町1丁目6番6,19,医療法人浩仁会,中西  浩二,内|神内|呼吸器内科|消化器内科|循環器外科|小|外|整|脳|泌|肛門外科|人工透析内科|リハ,○,0123-34-1155,42.886878,141.5793429,199,159,40,,,,,
299,千歳,医療法人社団我汝会えにわ病院,H15.5.16,H16.5.1,061-1449,恵庭市黄金中央2丁目1番地1,19,医療法人社団我汝会,菅野　大己,内|循環器内科|整|リハ|麻,○,0123-33-2333,42.8829067,141.58772,150,150,,,,,,
300,千歳,医療法人社団恵庭南病院,H6.12.5,H7.1.1,061-1441,恵庭市住吉町2丁目4番14号,19,医療法人社団恵庭南病院,島田　道朗,内|消化器内科|外|呼吸器外科|糖尿病|代謝内科|内分泌内科|リハ　,,0123-32-3850,42.8773543,141.5828206,150,42,108,,,,,
301,千歳,医療法人社団道央病院,H9.12.19,H10.1.1,061-1270,北広島市大曲804番地,19,医療法人社団道央病院,小柳　崇,内|循|リハ,,011-377-3301,42.9675604,141.495742,92,,92,,,,,
302,千歳,医療法人社団翔仁会輪厚三愛病院,H4.12.11,H5.1.1,061-1264,北広島市輪厚704番地16,19,医療法人社団翔仁会,安念　俊二,呼|消|循|整|皮|リハ|歯,,011-377-3911,42.9442136,141.5083301,146,59,87,,,,,
303,千歳,医療法人同仁会向陽台病院,H12.4.25,H13.1.16,066-0057,千歳市若草1丁目10番11,19,医療法人同仁会,佐藤　隆次,内|整|リハ,,0123-28-2288,42.7996389,141.6063428,60,,60,,,,,
305,小樽市,社会福祉法人 恩賜財団 済生会支部 北海道済生会西小樽病院,H14.4.24,H14.10.1,047-0036,小樽市長橋3丁目24番1号,8,社会福祉法人恩賜財団済生会支部北海道済生会,津川　　敏,内|小|リハ,,0134-32-5131,43.2154034,140.9820668,220,120,100,,,,,
306,小樽市,小樽市立病院,H26.12.1,H26.12.1,047-0017,小樽市若松1丁目1番1号,6,小樽市,近藤　吉宏　　　　,内|呼吸器内科|外|整|脳|精|小|皮|泌|産婦|眼|耳|放射線診断科|放射線治療科|麻|形|消化器内科|病理診断科|循環器内科|神内|心外,○,0134-25-1211,43.1855819,141.0076057,388,302,,80,4,2,,○
307,小樽市,社会福祉法人北海道社会事業協会小樽病院,T14.9.1,T14.9.1,047-0014,小樽市住ノ江1丁目6番15号,9,社会福祉法人北海道社会事業協会,柿木　滋夫　　　　,内|外|呼外|整|形|小|産婦|放|呼|消化器内科|循|麻|病理診断科|リハ,○,0134-23-6234,43.1857624,141.0049864,240,240,,,,,○,
308,小樽市,社会福祉法人 恩賜財団 済生会支部 北海道済生会小樽病院,H25.7.1,H25.8.1,047-0008,小樽市築港10番1号,8,社会福祉法人恩賜財団済生会支部北海道済生会,近藤　真章　　　　,内|神内|外|整|泌|耳|リハ|放|循環器内科|消化器内科|消化器外科|婦|麻,○,0134-25-4321,43.1840659,141.0191871,258,258,,,,,,
309,小樽市,小樽掖済会病院,S19.3.29,S19.4.1,047-0031,小樽市色内1丁目10番17号,22,一般社団法人日本海員掖済会,佐々木 一晃,内|外|整|消|胃|肛|麻,○,0134-24-0325,43.1964196,141.0015472,154,154,,,,,,
310,小樽市,大倉山学院,S43.7.4,S43.10.1,047-0263,小樽市見晴町20番2号,22,社会福祉法人 札幌緑花会,出店　正隆,精|内,,0134-62-2510,43.1345371,141.1673955,168,,,168,,,,
311,小樽市,医療法人 北仁会 石橋病院,S35.7.22,S35.8.1,047-0036,小樽市長橋3丁目7番7号,19,医療法人 北仁会,白坂　知信,内|心内|精|神|歯,,0134-25-6655,43.2091013,140.9803008,384,,,384,,,,
312,小樽市,医療法人 北光会 朝里中央病院,H22.9.7,H22.10.1,047-0152,小樽市新光1丁目21番5号,19,医療法人 北光会,山田　修,内|循環器内科|消化器内科|人工透析内科|心外|整|リハ|歯|小歯|小|皮|脳,,0134-54-6543,43.1730347,141.0547828,155,95,60,,,,,
313,小樽市,医療法人 勉仁会 東小樽病院,S61.10.14,S61.11.1,047-0152,小樽市新光2丁目29番3号,19,医療法人 勉仁会,菅　充生　　　,内|リハ|放|呼|胃|歯,,0134-54-7111,43.1683435,141.0525693,315,,315,,,,,
314,小樽市,医療法人 ひまわり会 札樽病院,H2.3.13,H2.4.1,047-0261,小樽市銭函3丁目298番地,19,医療法人 ひまわり会 札樽病院,池田 康一郎,内|神内|外|整|脳|リハ|消化器内科|循環器内科|泌,○,0134-62-5851,43.1366954,141.1747283,170,142,28,,,,,
315,小樽市,医療法人社団 三ツ山病院,H3.4.23,H3.5.1,047-0032,小樽市稲穂1丁目9番2号,19,医療法人社団 三ツ山病院　,中井　義仁,内|小|呼吸器内科|消化器内科|循環器内科,,0134-23-1289,43.1940476,140.9971922,85,,85,,,,,
316,小樽市,医療法人社団 豊明会 木下病院,H10.12.11,H11.1.1,047-0152,小樽市新光1丁目7番7号,19,医療法人社団 豊明会 木下病院,北野　明宣,精|神,,0134-54-8714,43.1755401,141.0548828,177,,,177,,,,
317,小樽市,医療法人 西病院,H9.12.22,H10.1.1,047-0024,小樽市花園2丁目11番5号,19,医療法人 西病院,西　信博,内|精|神,,0134-33-1200,43.1923311,140.9956647,124,,,124,,,,
318,小樽市,医療法人社団心優会 野口病院,H23.5.12,H23.6.1,047-0032,小樽市稲穂2丁目22番6号,19,医療法人社団 心優会,葭内　史朗,内|リハ|消化器内科|糖尿病内科,,0134-32-3775,43.1965251,140.9946701,128,,128,,,,,
319,小樽市,医療法人社団 青優会　南小樽病院,H21.3.10,H21.4.1,047-0002,小樽市潮見台1丁目5番3号,19,医療法人社団 青優会　南小樽病院,大川　博樹,内|呼吸器内科|循環器内科|老年内科|消化器内科|外|リハ,,0134-21-2333,43.1792383,141.0131055,131,,131,,,,,
320,小樽市,医療法人社団 北匠会 小樽中央病院,H24.5.14,H24.6.1,047-0021,小樽市入船2丁目2番18号,19,医療法人社団 北匠会,宮嵜　直樹,内|循環器内科|外|心外|脳|リハ|放|人工透析内科|整,○,0134-21-2222,43.1866178,140.9999118,89,89,,,,,,○
322,倶知安,黒松内町国民健康保険病院,S33.3.22,S35.6.1,048-0101,寿都郡黒松内町字黒松内586番地1,6,黒松内町,秀毛　寛己,内|外|整,○,0136-72-3301,42.6708501,140.3086089,40,40,,,,,,
323,倶知安,医療法人社団静和会昆布温泉病院,H6.12.22,H7.1.1,048-1323,磯谷郡蘭越町字黄金118番地,19,医療法人社団静和会,樫野　隆二,内|整|リハ,,0136-58-2231,42.8009644,140.6022699,120,,120,,,,,
324,倶知安,医療法人社団創成会羊蹄グリーン病院,H14.7.24,H14.8.1,044-0132,虻田郡京極町字更進780番2,19,医療法人社団創成会,Odermatt Christoph Thomas,内|精|神|心内,,0136-41-2111,42.8298391,140.8947516,,,,120,,,,
325,倶知安,ＪＡ北海道厚生連倶知安厚生病院,S20.4.5,S20.4.5,044-0004,虻田郡倶知安町北4条東1丁目2番地,10,北海道厚生農業協同組合連合会,九津見　圭司,内|精|神内|消|循|小|外|整|皮|泌|産婦|眼|耳|リハ|麻|脳,○,0136-22-1141,42.9047733,140.754831,234,172,,60,,2,○,
326,倶知安,社会福祉法人北海道社会事業協会余市病院,H3.8.13,H4.12.12,046-0003,余市郡余市町黒川町19丁目1番地1,9,社会福祉法人北海道社会事業協会,吉田　秀明,内|呼|小|外|整|脳|心外|皮泌|産婦|眼|耳|放|リハ,○,0135-23-3126,43.1885148,140.8134707,172,120,52,,,,,
327,倶知安,医療法人社団修徳会林病院,H17.8.16,H17.9.1,046-0012,余市郡余市町山田町50番地1,19,医療法人社団修徳会林病院,林　和秀,内|精|神,,0135-22-5188,43.1836052,140.7835653,185,,,185,,,,
329,岩内,社会福祉法人北海道社会事業協会岩内病院,H12.6.27,H14.4.1,045-0013,岩内郡岩内町字高台209番2,9,社会福祉法人北海道社会事業協会,黒田　嘉和,内|循環器内科|神経精神科|小|外|整|泌|眼|麻|リハ,○,0135-62-1021,42.9786242,140.5175247,240,96,90,54,,,,
331,岩見沢,独立行政法人労働者健康福祉機構北海道中央労災病院,S30.8.11,S30.10.7,069-0004,岩見沢市4条東16丁目5番地,3,独立行政法人労働者健康福祉機構,宮本賢二,内|循|外|整|泌|眼|耳|リハ|放|麻|歯外|病診,○,0126-22-1300,43.2150619,141.7869812,312,300,,,12,,,
332,岩見沢,岩見沢市立総合病院,S30.4.5,S30.4.7,068-8555,岩見沢市9条西7丁目2番地,6,岩見沢市,中島　保明,内|精神神経|小|外|整|形|脳|皮|泌|産婦|眼|耳|放|麻,○,0126-22-1650,43.1953321,141.7654765,484,365,,115,,4,○,○
333,岩見沢,岩見沢市立栗沢病院,S27.1.19,S27.2.14,068-0125,岩見沢市栗沢町南本町30番地,6,岩見沢市,田村　元男,内|外,○,0126-45-2351,43.1170289,141.7428482,85,,85,,, ,,
334,岩見沢,医療法人恵仁会　空知病院,S37.8.25,S37.9.1,068-0851,岩見沢市大和1条8丁目1番地,19,医療法人恵仁会,中村　和芳,内|精|神,,0126-22-2072,43.1896994,141.7375281,179,,,179,,,,
335,岩見沢,医療法人社団　明日佳　岩見沢明日佳病院,H14.11.19,H14.12.1,068-0833,岩見沢市志文町297番地13,19,医療法人社団　明日佳,荒川　圭二,内|リハ|精,,0126-25-5670,43.1645974,141.7560527,250,,150,100,,,,
336,岩見沢,野宮病院,S55.8.19,S55.9.1,068-0005,岩見沢市5条東18丁目57番地,19,医療法人緑光会野宮病院,長栄　洋,内|精,,0126-22-3731,43.216248,141.795483,193,,,193,,,,
337,岩見沢,医療法人社団北陽会　牧病院,S63.10.29,S63.11.1,068-0023,岩見沢市3条西5丁目9番地,19,医療法人社団北陽会,牧　陽一,内|精|神|心内,,0126-22-0043,43.2020766,141.7620814,140,,,140,,,,
338,岩見沢,医療法人北翔会岩見沢北翔会病院,H1.5.22,H1.6.1,068-0030,岩見沢市10条西21丁目1番地1,19,医療法人北翔会,宮本　守孝,内|整|リハ,○,0126-32-2188,43.1882668,141.7526965,99,55,44,,,,,
339,岩見沢,市立三笠総合病院,S39.6.3,S39.7.1,068-2194,三笠市宮本町489番地の1,6,三笠市,川﨑　君王,内|精|神|循|小|外|整|皮|泌|眼|耳|リハ,○,01267-2-3131,43.2464796,141.8698775,199,91,43,65,,,,
340,岩見沢,医療法人社団幾生会　南そらち記念病院,H26.10.30,H26.12.1,068-2165,三笠市岡山506番地8号,19,医療法人社団幾生会院,松本　茂男,内|リハ|整,,01267-6-8211,43.2399012,141.8029783,93,,93,,,,,
341,岩見沢,独立行政法人労働者健康福祉機構北海道中央労災病院せき損センター,S30.8.11,S30.9.1,072-0015,美唄市東4条南1丁目3番1号,3,独立行政法人労働者健康福祉機構,三浪　明男,内|循環器内科|外|整|形|泌|リハ|麻|歯,,0126-63-2151,43.3294738,141.8705284,157,157,,,,,,
342,岩見沢,市立美唄病院,S16.6.4,S18.3.14,072-8555,美唄市西2条北1丁目1番1号,6,美唄市,松江　弘一,内|小|外|整|皮|泌|産婦|眼|耳|放|神内|リハ,○,0126-63-4171,43.3336397,141.8576095,98,53,45,,,,,
343,岩見沢,医療法人社団慶北会花田病院,H1.8.8,H1.9.1,072-0001,美唄市大通東1条北2丁目2番5号,19,医療法人社団慶北会花田病院,花田　太郎,内|消|循|リハ,,0126-68-8700,43.3342397,141.861437,120,60,60, ,,,,
344,岩見沢,医療法人社団宏仁会しろした病院,H11.4.1,H11.5.1,072-0021,美唄市大通西1条北1丁目1番31号,19,医療法人社団宏仁会しろした病院,城下　紀幸,内|小,,0126-63-2780,43.3330065,141.8602844,59,,59,,,,,
345,岩見沢,国民健康保険月形町立病院,H6.4.1,H6.6.27,061-0500,樺戸郡月形町字月形1466番地1,6,月形町,安達　主税,内|整|皮|眼|リハ,○,0126-53-2241,43.3403361,141.6743978,40,40,,,,,,
346,岩見沢,国民健康保険由仁町立病院,S20.6.6,S20.6.10,069-1207,夕張郡由仁町馬追1番地,6,由仁町,齋藤　有,内|外|整|放|リハ,○,01238-3-2031,43.0120091,141.7803604,57,12,45,,,,,
347,岩見沢,国民健康保険町立南幌病院,S28.2.26,S28.8.25,069-0238,空知郡南幌町元町2丁目2番1号,6,南幌町,戸田　和則,内|小|外|眼,○,011-378-2111,43.0695039,141.6520213,80,26,54,,,,,
348,岩見沢,町立長沼病院,S26.7.30,S26.9.1,069-1300,夕張郡長沼町中央南2丁目2番1号,6,長沼町,倉　敏郎,内|精|神|消|小|整|産婦|眼|耳|放|リハ|麻|循|皮,○,0123-88-2321,43.0076674,141.6932796,128,84,,44,,,,
349,岩見沢,栗山赤十字病院,S29.5.15,S29.6.15,069-1513,夕張郡栗山町朝日3丁目2番地,7,日本赤十字社,渡邊　光明,内|精|神|消内|循内|外|整|皮|泌|耳|放|リハ,○,0123-72-1015,43.0593898,141.7896046,136,96,40,,,,,
351,滝川,市立芦別病院,S63.3.9,S63.3.27,075-8501,芦別市本町14番地,6,芦別市,細川　寿和,内|外|整|小|皮|泌|産婦|眼|耳|放|呼|循|麻,○,0124-22-2701,43.5183024,142.1956692,129,98,31,,,,,
352,滝川,医療法人仁恵会中野記念病院,S41.4.26,S41.5.1,075-0036,芦別市旭町48番地,19,医療法人仁恵会,古瀬　勉,内|精|神,,0124-22-2196,43.5234545,142.1980214,212,,,212,,,,
353,滝川,医療法人北武会野口病院,S61.6.13,S61.7.1,075-0002,芦別市北2条西1丁目7番地,19,医療法人北武会,野口　和哉,内|整|リハ,,0124-22-2032,43.5211822,142.1848172,80,,80,,,,,
354,滝川,あかびら市立病院,S25.6.19,S25.8.10,079-1136,赤平市本町3丁目2番地,6,赤平市,内山　久士,内|外|整|小|皮|泌|産婦|眼|耳|リハ|放|麻,○,0125-32-3211,43.5560691,142.053702,120,60,60,,,,,
355,滝川,平岸病院,S43.3.29,S43.4.1,079-1281,赤平市平岸新光町2丁目1番地,19,社会医療法人博友会,郡　正博,内|神内|精|歯|神,,0125-38-8331,43.5420235,142.1193168,366,42,0,324,,,,
356,滝川,滝川市立病院,S46.3.31,S46.4.1,073-0022,滝川市大町2丁目2番34号,6,滝川市,堤　明人,内|外|整|小|皮|泌|産婦|眼|耳|リハ|放|麻|精神神経科,○,0125-22-4311,43.5588586,141.9117504,314,270,,44,,,○,
357,滝川,医療法人優仁会滝川中央病院,S36.6.15,S36.6.15,073-0015,滝川市朝日町東2丁目1番5号,19,医療法人優仁会,岡田　康湖,内|精|歯|神|胃,,0125-22-4344,43.5687134,141.9145995,297,,,297,,,,
358,滝川,医療法人優仁会若葉台病院,S63.2.8,S63.3.17,079-0461,滝川市江部乙町1452番1,19,医療法人優仁会,新井　正之,内|歯|呼|循,,0125-75-2266,43.6245037,141.9481302,204,,204,,,,,
359,滝川,"神部ペインクリニック,内科病院",S63.1.25,S63.2.2,073-0031,滝川市栄町3丁目4番27号,19,"医療法人シーザーズ,メディ,ケア",神部　洋史,内|外|整|泌|肛|麻,,0125-22-2021,43.5574863,141.9055289,43,43,,,,,,
360,滝川,医療法人翔陽会滝川脳神経外科病院,H20.1.1,H20.1.1,073-0044,滝川市西町1丁目2番5号,19,医療法人翔陽会滝川脳神経外科病院,中垣　陽一,脳|リハ,○,0125-22-0250,43.5604499,141.9027373,132,72,60,,,,,○
361,滝川,医療法人圭仁会佐藤病院,S63.8.13,S63.9.1,073-0042,滝川市泉町135番地15,19,医療法人圭仁会,佐藤  達彦,内|心内|精|リハ|消,,0125-24-0111,43.5721236,141.8987229,180,36,,144,,,,
362,滝川,砂川市立病院,S24.12.26,S26.11.30,073-0196,砂川市西4条北3丁目1番1号,6,砂川市,小熊　豊,内|循環器内科|神内|外|呼外|心外|整|脳|形|精|小|皮|泌|産婦|眼|耳|リハ|放射線診断科|放射線治療科|病理診断科|救急科|麻|歯,○,0125-54-2131,43.4945763,141.9047371,498,408,,80,6,4,○,○
363,滝川,医療法人砂川慈恵会病院,S55.4.30,S55.6.1,073-0125,砂川市宮城の沢44番地,19,医療法人砂川慈恵会,上口　権二郎,内|精|神,,0125-54-2300,43.4781647,141.9347025,124,,,124,,,,
364,滝川,歌志内市立病院,S38.10.1,S38.10.1,073-0405,歌志内市字神威269番地,6,歌志内市,高橋　正一,内|小,,0125-42-3185,43.5107504,142.0242976,60,,60,,,,,
365,滝川,奈井江町立国民健康保険病院,S39.3.31,S39.11.1,079-0313,空知郡奈井江町字奈井江12番地,6,奈井江町,小西　裕彦,内|外|整|小|眼|リハ,○,0125-65-2221,43.4204261,141.8875069,96,46,50,,,,,
366,滝川,空知中央病院,H20.4.1,H20.4.1,073-1103,樺戸郡新十津川町字中央20番地4,19,医療法人社団つつじ会,黒田　佳彦,内|精|リハ,,0125-76-4111,43.5451838,141.875391,200,,200,,,,,
367,滝川,新雨竜第一病院,H7.12.22,H8.1.1,078-2639,雨竜郡雨竜町字尾白利加91番地1,19,"医療法人アンリー,デュナン会",渡邊　慎司,内|小|放,,0125-77-2121,43.6484434,141.8913148,108,,108,,,,,
369,深川,深川市立病院,昭38.５.１,昭38.５.１,074-0006,深川市6条6番1号,6,深川市,藤澤　真,内|小|外|整|脳|皮|泌|肛|産婦|眼|耳|リハ|放|麻|循|呼|消,○,0164-22-1101,43.7161052,142.0403063,203,199,,,,4,○,○
370,深川,北海道中央病院,昭25.５.27,昭25.11.１,074-0012,深川市西町1番7号,22,社会福祉法人北海道中央病院,大西　道祥,内|精|神|呼|胃|循,,0164-22-2135,43.7164855,142.03026,217,,137,80,,,,
371,深川,医療法人圭仁会東ヶ丘病院,昭45.３.２,昭45.４.１,074-1273,深川市音江町字音江257番地の2,19,医療法人圭仁会,佐藤　邦彦,内|心内|精|消|リハ,,0164-25-2755,43.6924615,142.0606527,329,,,329,,,,
372,深川,深川第一病院,平14.２.４,平14.３.１,074-0031,深川市あけぼの町1番1号,19,医療法人アンリー・デュナン会,林　　憲雄,内|消|眼|リハ|歯外|歯,,0164-23-3511,43.7414048,142.0354579,270,,270,,,,,
373,深川,医療法人社団厚北会吉本病院,平12.８.21,平12.９.１,074-0003,深川市3条25番19号,19,医療法人社団　　厚北会吉本病院,松本　三樹,内|精|神,,0164-22-7130,43.7266964,142.0652006,100,,,100,,,,
375,室蘭,市立室蘭総合病院,H7.12.4,H9.6.1,051-0012,室蘭市山手町3丁目8番1号,6,室蘭市,澁谷　均,内|精|小|呼吸器内科|消化器内科|循環器内科|糖尿病内科|腎臓内科|外|消化器外科|整|形|脳|心外|皮|泌|産婦|眼|耳|リハ|放|麻|呼外|病理診断科　,○,0143-25-3111,42.3138057,140.9762629,549,401,,120,24,4,,○
376,室蘭,豊浦町国民健康保険病院,S27.5.27,S27.12.12,049-5411,虻田郡豊浦町字東雲町16番地の1,6,豊浦町,能登屋　久志,内|小|外|リハ,,0142-83-2228,42.5831807,140.7158483,60,60,,,,,,
377,室蘭,総合病院伊達赤十字病院,S14.12.21,S15.8.28,052-0021,伊達市末永町81番地,7,日本赤十字社,武智　茂,内|神内|呼|消|循|精|小|外|整|皮|泌|産婦|眼|耳|リハ|放|麻|神,○,0142-23-2211,42.4762504,140.8705918,374,270,44,60,,,○,
378,室蘭,独立行政法人地域医療機能推進機構登別病院,S28.1.9,S28.1.28,059-0551,登別市登別温泉町133番地,4,独立行政法人地域医療機能推進機構,井須　和男,内|神内|外|整|泌|リハ|麻,○,0143-84-2165,42.488516,141.1479043,242,140,102,,,,,
379,室蘭,社会医療法人製鉄記念室蘭病院,H4.4.22,H4.5.1,050-0076,室蘭市知利別町1丁目45番地,19,社会医療法人製鉄記念室蘭病院,前田　征洋,内|呼吸器内科|消化器内科|消化器外科|循環器内科|小|外|整|心外|皮|泌|産婦|眼|耳|リハ|放|麻|脳|呼外|病理診断科,○,0143-44-4650,42.3574153,141.0167915,347,347,,,,,○,
380,室蘭,日鋼記念病院,S55.9.27,S55.10.1,051-0005,室蘭市新富町1丁目5番13号,19,社会医療法人母恋,柳谷　晶仁,内|呼吸器内科|消化器内科|消化器外科|循環器内科|リウ|小|整|形|外|脳|心外|小外|皮|泌|産婦|眼|耳|リハ|放|歯|小歯|歯外|麻||病理診断科,○,0143-24-1331,42.3153169,140.9838541,479,432,47,,,,○,
381,室蘭,医療法人社団医修会大川原脳神経外科病院,S52.12.23,S53.1.1,050-0082,室蘭市寿町1丁目5番2号,19,医療法人社団医修会,前田　高宏,神内|脳|リハ|麻,○,0143-44-1519,42.347583,141.0297438,152,152,,,,,,○
382,室蘭,医療法人室蘭太平洋病院,S54.6.16,S54.7.1,050-0054,室蘭市白鳥台5丁目19番2号,19,医療法人五紀会,伊藤　真義,内|循環器内科|リハ|外|泌|皮,,0143-59-2211,42.378773,140.9416093,210,39,171,,,,,
383,室蘭,医療法人社団積信会三村病院,S55.12.17,S56.1.1,050-0074,室蘭市中島町3丁目32番15号,19,医療法人社団積信会,浜市　修嘉,内|精|神,,0143-44-3274,42.3522214,141.0232718,300,,,300,,,,
384,室蘭,医療法人社団上田病院,S56.12.19,S57.1.1,050-0083,室蘭市東町2丁目24番6号,19,医療法人社団上田病院,上田　哲史,内|胃|循|リハ,,0143-44-3690,42.3470747,141.0287328,120,,120,,,,,
385,室蘭,医療法人社団千寿会三愛病院,S44.5.21,S44.6.5,059-0463,登別市中登別町24番地,19,医療法人社団千寿会,千葉　泰二,内|心内|精|消化器内科|リハ|歯|歯外|皮|老年精神科|老年内科|眼|泌|循環器内科,,0143-83-1111,42.4642577,141.1682983,534,,74,460,,,,
386,室蘭,社会医療法人友愛会恵愛病院,H7.11.21,H8.12.20,059-0034,登別市鷲別町2丁目31番地1,19,社会医療法人友愛会,森田　伸行,内|循環器内科|精|神|小,,0143-86-7159,42.3563913,141.0475064,250,,16,234,,,,
387,室蘭,医療法人登別すずらん病院,S63.4.23,S63.5.1,059-0027,登別市青葉町34番地9,19,医療法人登別すずらん病院,築田　浩明,内|消化器内科|リハ,,0143-85-1000,42.393428,141.0790549,130,,130,,,,,
388,室蘭,三恵病院,H21.11.30,H21.12.1,052-0105,有珠郡壮瞥町字仲洞爺69番地,19,医療法人社団倭会,中川　英範,内|精|神,,0142-66-3232,42.6182393,140.9161938,200,,,200,,,,
389,室蘭,医療法人交雄会そうべつ温泉病院,S60.12.16,S61.1.1,052-0116,有珠郡壮瞥町字南久保内146番地12,19,医療法人交雄会,加藤　敏文,内|眼|リハ,,0142-65-2221,42.5758541,140.9644725,180,,180,,,,,
390,室蘭,医療法人社団洞仁会洞爺温泉病院,H4.4.22,H4.5.1,049-5802,虻田郡洞爺湖町洞爺町54番地41,19,医療法人社団洞仁会,中谷　玲二,内|消化器内科|リハ|緩和ケア内科|呼吸器内科|循環器内科|糖尿病内科,○,0142-87-2311,42.6568793,140.8297809,216,100,116,,,,,
391,室蘭,医療法人社団楽生会皆川病院,H17.9.20,H17.10.1,059-0012,登別市中央町3丁目20番地5,19,医療法人社団楽生会,皆川　和廣,内|消|リハ,,0143-88-0111,42.4089908,141.103421,84,,84,,,,,
392,室蘭,ミネルバ病院,H14.4.18,H14.5.1,052-0012,伊達市松ケ枝町245番地1,19,医療法人社団倭会,齋藤　諭,内|精|神,,0142-21-2000,42.4841309,140.896925,170,,,170,,,,
393,室蘭,社会医療法人慈恵会聖ケ丘病院,H11.7.22,H12.11.1,052-0014,伊達市舟岡町214番地22,19,社会医療法人慈恵会,上原　總一郎,内|循環器内科|消化器内科|漢方内科|外|整|リハ|脳,,0142-21-5300,42.4656797,140.8828501,288,,288,,,,,
394,室蘭,社会福祉法人北海道社会事業協会洞爺病院,H15.3.26,H15.5.1,049-5605,虻田郡洞爺湖町高砂町126番地,9,社会福祉法人北海道社会事業協会,青木　茂,内|小|外|整|リハ|泌|神内|歯|歯外|麻,○,0142-74-2555,42.5508694,140.7741806,292,60,232,,,,,
395,室蘭,登別記念病院,H15.12.22,H16.1.1,059-0012,登別市中央町1丁目1番地4,19,社会医療法人母恋,角田　一眞,内|小|外|リハ,,0143-81-3000,42.4108544,141.1079955,120,,120,,,,,
397,苫小牧,苫小牧市立病院,H16.6.14,H18.10.1,053-8567,苫小牧市清水町1丁目5番20号,6,苫小牧市,松岡　伸一,内|神内|消化器内科|呼吸器内科|循環器内科|小|外|整|皮|泌|産婦|眼|耳|歯|歯外|麻|脳|放射線治療科|リハ|内視鏡外科|病理診断科|新生児科,○,0144-33-3131,42.6520752,141.6033788,382,378,,,,4,○,○
398,苫小牧,白老町立国民健康保険病院,S41.3.1,S41.9.25,059-0903,白老郡白老町日の出町3丁目1番1号,6,白老町,猪原　達也,内|小|外|放|脳,○,0144-82-2181,42.5574236,141.3675543,58,58,,,,,,
399,苫小牧,むかわ町鵡川厚生病院,H20.1.11,H20.3.1,054-0042,勇払郡むかわ町美幸1丁目86番地,6,むかわ町,石川　典俊,内|消化器内科|循環器内科|小|外|リハ,○,0145-42-2033,42.5759258,141.9234311,40,40,,,,,,
400,苫小牧,勤医協苫小牧病院,S56.3.10,S56.4.16,053-0855,苫小牧市見山町1丁目8番地23号,18,公益社団法人北海道勤労者医療協会,宮崎　有広,内|リウ|整|リハ,,0144-72-3151,42.6403278,141.5701016,80,42,38,,,,,
401,苫小牧,王子総合病院,H7.12.25,H9.5.1,053-0021,苫小牧市若草町3丁目4番8号,19,医療法人王子総合病院,大岩　均,内|精|神内|呼吸器内科|循環器内科|消化器内科|小|外|整|脳|心外|皮|泌|産婦|眼|耳|放射線治療科|歯|麻|血液腫瘍内科|呼外,○,0144-32-8111,42.6385073,141.6047162,440,440,,,,,○,○
402,苫小牧,医療法人社団玄洋会道央佐藤病院,S56.4.21,S56.5.1,059-1265,苫小牧市字樽前234番地,19,医療法人社団玄洋会,石川　幹雄,内|精|心内|老年精神科|児童思春期精神科,,0144-67-0236,42.5958033,141.4268619,465,,63,402,,,,
403,苫小牧,社会医療法人延山会苫小牧澄川病院,S59.4.3,S59.5.1,059-1271,苫小牧市澄川町7丁目9番18号,19,社会医療法人延山会,北尾　研二,内|呼吸器内科|胃腸内科|循環器内科|リハ|歯|歯外,,0144-67-3111,42.6238572,141.5141129,180,38,142,,,,,
404,苫小牧,医療法人同樹会苫小牧病院,S60.11.22,S60.12.1,053-0006,苫小牧市新中野町3丁目9番地10,19,医療法人同樹会苫小牧病院,富田　達也,内|消化器内科|外|整|肛門外科|耳|リハ|麻,○,0144-36-1221,42.6424655,141.6098956,141,110,31,,,,,
405,苫小牧,医療法人社団眞和會苫小牧病院,H2.2.27,H2.5.1,053-0811,苫小牧市光洋町3丁目16番4号,19,医療法人社団眞和會,福田　健文,内|消化器内科|心内,,0144-72-1201,42.6244591,141.5592657,59,,59,,,,,
406,苫小牧,医療法人社団養生館苫小牧日翔病院,H1.10.11,H1.12.1,053-0803,苫小牧市矢代町2丁目18番1号,19,医療法人社団養生館,舘山　美樹,内|消化器内科|循環器内科|外|整|形|脳|泌|リハ|リウ|麻|腫瘍内科,○,0144-72-7000,42.6264109,141.5811154,168,168,,,,,,○
407,苫小牧,医療法人同和会追分菊池病院,S45.3.10,S45.5.1,059-1911,勇払郡安平町追分本町1丁目43番地,19,医療法人同和会,菊池　晃,内|消|小|放|整|皮|循環器内科,,0145-25-2531,42.8771851,141.8121028,40,30,10,,,,,
408,苫小牧,医療法人こぶし植苗病院,H2.4.16,H2.5.1,059-1365,苫小牧市字植苗52番地2,19,医療法人こぶし,芦澤　健 ,内|精|心内,,0144-58-2314,42.7225744,141.7221949,230,,,230,,,,
409,苫小牧,医療法人社団嵩仁会苫都病院,H2.5.28,H2.6.1,053-0021,苫小牧市若草町5丁目10番21号,19,医療法人社団嵩仁会,和田　修,内|呼吸器内科|消化器内科|循環器内科|小|放,,0144-34-2135,42.6423737,141.6073293,82,,82,,,,,
410,苫小牧,医療法人大島記念会苫小牧緑ヶ丘病院,H5.4.28,H5.5.1,053-0034,苫小牧市清水町1丁目5番7号,19,医療法人大島記念会　,土屋　潔,心内|精,,0144-34-4761,42.6502725,141.6005099,111,,,111,,,,
411,苫小牧,医療法人社団平成醫塾苫小牧東病院,H8.4.30,H8.5.1,053-0054,苫小牧市明野新町5丁目1番30号,19,医療法人社団平成醫塾,橋本　洋一,内|呼吸器内科|消化器内科|循環器内科|リウ|リハ|放|ペインクリニック内科|麻|緩和ケア内科,,0144-55-8811,42.6626506,141.6366129,260,65,195,,,,,
412,苫小牧,医療法人社団養生館青葉病院,H15.4.17,H15.6.1,053-0807,苫小牧市青葉町2丁目9-19,19,医療法人社団養生館,和田　耕一,神内|リハ|歯|歯外,,0144-75-8000,42.6300702,141.5699583,52,52,,,,,,
414,浦河,総合病院浦河赤十字病院,S30.5.31,S31.6.1,057-0007,浦河郡浦河町東町ちのみ1丁目2番1号,7,日本赤十字社,武岡　哲良,内|精|神|小|外|整|皮|泌|産婦|眼|耳|リハ|放|麻|脳|血管外科,○,0146-22-5111,42.159337,142.7879195,246,141,51,50,0,4,○,
416,静内,日高町立門別国民健康保険病院,昭28.3.5,昭28.3.5,059-2121,沙流郡日高町門別本町29番地,6,日高町,大友   透,内|外|循,○,01456-2-5311,42.4802011,142.0690397,34,34,,,,,,
417,静内,平取町国民健康保険病院,昭21.9.3,昭21.10.10,055-0107,沙流郡平取町本町67番地1,6,平取町,谷   信一,内|外|整|循環器内科|皮,○,01457-2-2201,42.5881113,142.1362775,48,48,,,,,,
418,静内,新ひだか町立静内病院,平6.3.3,平6.4.1,056-0004,日高郡新ひだか町静内緑町4丁目5番1号,6,新ひだか町,小松　幹志,内|小|外|皮|眼|耳|循,,0146-42-0181,42.3388982,142.3745904,58,58,,,,,,
419,静内,新ひだか町立三石国民健康保険病院,昭50.7.18,昭51.11.26,059-3108,日高郡新ひだか町三石本町214番地,6,新ひだか町,八木橋　厚仁,内|小|外|循環器内科,,0146-33-2231,42.2480685,142.5615985,42,20,22,,,,,
420,静内,医療法人静仁会静仁会静内病院,平元.4.19,平2.10.1,056-0005,日高郡新ひだか町静内こうせい町1丁目10番27号,19,医療法人静仁会,井齋　偉矢,内|消化器内科|胃腸内科|循環器内科|小|外|整|リハ|放|脳外|漢方内科|泌|人工透析内科,○,0146-42-0701,42.3446283,142.3748761,199,110,89,,,,,
421,静内,医療法人社団静和会石井病院,平6.8.29,平6.9.1,056-0022,日高郡新ひだか町静内高砂町3丁目3番1号,19,医療法人社団静和会石井病院　,石井　隆司,内|精|神,,0146-42-3031,42.3501552,142.3639737,218,,,218,,,,
422,静内,鎌田病院,昭57.9.27,昭57.11.１,055-0001,沙流郡日高町富川北6丁目3番26号,23,鎌田　幸雄,鎌田　幸雄,内|呼|消|循|小|外|整|脳,,01456-2-0340,42.5229595,142.0357674,45,,45,,,,,
424,旭川市,旭川医科大学病院,S51.3.10,S51.11.1,078-8802,旭川市緑が丘東2条1丁目1番1号,2,国立大学法人旭川医科大学,平田　哲,精|小|整|脳|心外|小外|皮|泌|産|婦|眼|耳|放|リハ，歯外|麻，救急，循環器内科，腎臓内科，呼吸器内科，脳神経内科，糖尿病内科，内分泌内科，消化器内科，血液|腫瘍内科，血管外科，呼吸器外科，乳腺外科，消化器外科，頭頸部外科,○,0166-65-2111,43.7298827,142.3843467,602,571,,31,,,○,○
425,旭川市,独立行政法人国立病院機構旭川医療センター,S20.12.1,S20.12.1,070-0901,旭川市花咲町7丁目4048番地,1,独立行政法人国立病院機構,西村　英夫,内|脳|呼吸器内科|消化器内科|糖尿病|代謝内科|循環器内科|小|外|呼外|消化器外科|乳腺外科|リハ|放|臨床検査科|病理診断科|麻,○,0166-51-3161,43.7988416,142.3815132,310,290,,,20,,,
426,旭川市,北海道立旭川肢体不自由児総合療育センター,S37.6.30,S38.4.1,071-8142,旭川市春光台2条1丁目1番43号,5,北海道,岡　隆治,小|整|歯|麻,,0166-51-2126,43.8107055,142.3522678,80,80,,,,,,
427,旭川市,市立旭川病院,S20.9.17,S21.11.3,070-0029,旭川市金星町1丁目1番65号,6,旭川市,子野目　政昭,内|精|神内|呼吸器内科|循環器内科|血液内科|糖尿病|代謝内科|消化器外科|乳腺外科|消化器内科|呼外|小|外|整|心外|皮|泌|産婦|眼|耳|放|歯外|麻，病理診断科,○,0166-24-3181,43.7784235,142.3659768,502,396,,100,,6,○,
428,旭川市,旭川赤十字病院,T11.9.28,T11.9.28,070-0061,旭川市曙1条1丁目1番1号,7,日本赤十字社,牧野　憲一,内|精|神内|呼吸器内科|消化器内科|消化器外科|循環器内科|糖尿病内分泌内科|腎臓内科|血液|腫瘍内科|救急科|病理診断科|小|外|整|形|脳|心外|泌|産婦|眼|耳|リハ|放|歯外|麻|皮,○,0166-22-8111,43.7696295,142.3483042,554,514,,40,,,○,○
429,旭川市,ＪＡ北海道厚生連旭川厚生病院,S62.1.27,S63.3.30,078-8211,旭川市1条通24丁目111番地3,10,北海道厚生農業協同組合連合会,森　達也,内|精|神内|呼|消|循|小|外|整|形|呼外|皮|泌|産婦|眼|耳|リハ|放|麻，病理診断科,○,0166-33-7171,43.7588319,142.3849006,539,539,,,,,○,
430,旭川市,北海道療育園,S46.2.23,S46.4.1,071-8144,旭川市春光台4条10丁目,22,社会福祉法人北海道療育園,平元　東,内|精|神|小|整|眼|耳|放|歯外,,0166-51-6524,43.8298154,142.3681813,336,156,,180,,,,
431,旭川市,大西病院,S35.7.28,S35.8.1,070-0034,旭川市4条通11丁目右3号,19,医療法人回生会,川嶋　栄司,内|消化器外科|消化器内科|循環器内科|外|皮|整|形|脳|リハ|放|歯|歯外,○,0166-26-2171,43.7667665,142.3663329,332,97,235,,,,,○
432,旭川市,医療法人社団志恩会相川記念病院,S35.11.1,S35.11.1,070-0842,旭川市大町2条15丁目92番地の16,19,医療法人社団志恩会,相川　正志,内|精|神,,0166-51-3421,43.7968179,142.3481581,139,,,139,,,,
433,旭川市,医療法人中島病院,H10.9.9,H11.8.1,070-0034,旭川市4条通16丁目1152番地,19,医療法人中島病院,中島　康雄,胃|外|整|肛,○,0166-24-1211,43.7649308,142.3737432,99,49,50,,,,,
434,旭川市,医療法人整形外科進藤病院,S43.3.1,S43.3.19,078-8214,旭川市4条通19丁目右6号,19,医療法人社団整形外科進藤病院,小澤　一広,内|リウ|整|リハ|脳|麻|形,○,0166-31-1221,43.763545,142.3777789,137,92,45,,,,,
435,旭川市,医療法人唐澤病院,S39.4.24,S39.5.1,070-0034,旭川市4条通9丁目左8号,19,医療法人唐沢病院,唐沢　学洋,内|外|皮|肛門外科|胃腸内科|胃腸外科|内視鏡内科|内視鏡外科,,0166-23-3165,43.7753822,142.3672379,60,60,,,,,,
436,旭川市,道北勤医協一条通病院,H27.7.21,H27.9.21,078-8241,旭川市東光1条1丁目1番17号,19,医療法人道北勤労者医療協会,山内　潔,内|呼吸器内科|消化器内科|循環器内科|小，アレ|リウ|整|リハ|麻，緩和ケア外科,○,0166-34-2111,43.7561573,142.3877365,151,91,60,,,,,
437,旭川市,医療法人社団弘和会森産科婦人科病院,S62.3.24,S62.4.1,070-0037,旭川市7条通7丁目左2号,19,医療法人社団弘和会,森　泰宏,産|婦|麻|美容皮膚科,,0166-22-6125,43.7728768,142.3619859,46,46,,,,,○,
438,旭川市,医療法人清陵会藤井病院,S55.5.12,S55.6.1,070-0831,旭川市旭町1条3丁目841番地の138,19,医療法人清陵会藤井病院,小原　敦史,内|呼吸器内科|消化器内科|循環器内科|リハ,,0166-51-1411,43.7827449,142.3570498,163,,163,,,,,
439,旭川市,豊岡中央病院,S56.1.24,S56.2.1,078-8237,旭川市豊岡7条2丁目1番5号,19,医療法人歓生会,後藤　英司,内|消化器内科|内分泌内科|糖尿病代謝内科|大腸外科|循環器内科，小|外|整|脳|耳|肛門外科|リハ|麻|歯外,,0166-32-8181,43.7653926,142.3925687,159,111,48,,,,,
440,旭川市,医療法人社団旭川圭泉会病院,S59.6.19,S59.7.1,078-8208,旭川市東旭川町下兵村252番地,19,医療法人社団旭川圭泉会病院　,直江　寿一郎,内|精|麻|心内|ペインクリニック内科,,0166-36-1559,43.7790515,142.4381744,399,,,399,,,,
441,旭川市,医療法人元生会森山病院,S60.4.22,S60.5.1,070-0038,旭川市8条通6丁目左10号,19,医療法人社団元生会,森山　領,内|消化器内科|循環器内科|外|整|脳|泌|眼|耳|リハ|放|麻|乳腺外科,○,0166-22-4151,43.7740461,142.3617108,172,172,,,,,,○
442,旭川市,医療法人元生会森山メモリアル病院,H11.5.6,H12.4.1,070-0832,旭川市旭町2条1丁目31番地,19,医療法人社団元生会,中島　進,内|整|脳|リハ,,0166-55-2000,43.7812092,142.3625659,108,,108,,,,,
443,旭川市,旭川脳神経外科病院,H12.10.31,H12.12.15,078-8220,旭川市10条通21丁目2番地の11,19,医療法人稲仁会,田之岡　篤,脳|リハ，循環器内科,○,0166-33-2311,43.7699561,142.3853292,120,42,78,,,,,○
444,旭川市,医療法人社団はらだ病院,H1.3.16,H1.4.1,070-0031,旭川市1条通16丁目右7号,19,医療法人社団はらだ病院,原田　一道,内|呼|胃|循|リハ,,0166-23-2780,43.7614007,142.3724018,80,39,41,,,,,
445,旭川市,医療法人社団旭豊会旭川三愛病院,H1.3.9,H1.4.1,079-8414,旭川市永山4条6丁目3番24号,19,医療法人社団旭豊会,豊泉　武男,内|消|循|リハ,,0166-47-6666,43.7920907,142.4094908,141,91,50,,,,,
446,旭川市,医療法人修彰会沼崎病院,H1.3.9,H1.4.1,070-0038,旭川市8条通8丁目43番地,19,医療法人修彰会,沼崎　彰,内|消化器内科|血液内科|リハ|感染症内科,,0166-23-2090,43.7733657,142.3639745,90,40,50,,,,,
447,旭川市,医療法人社団慶友会吉田病院,H3.9.3,H3.9.11,070-0054,旭川市4条西4丁目1番2号,19,医療法人社団慶友会,横田　欽一,内|呼|消|循|外|整|眼|リハ|放|歯|歯外|精|泌，腎臓内科,,0166-25-1115,43.7730234,142.3450098,263,263,　,,,,,
448,旭川市,医療法人社団創成旭川南病院,H1.6.17,H1.7.1,078-8324,旭川市神楽岡14条7丁目1番1号,19,医療法人社団創成,近藤　啓介,内|歯|外|整，泌,,0166-65-2220,43.7348758,142.3624762,70,,70,,,,,
449,旭川市,旭川十条病院,H10.11.17,H12.9.1,078-8219,旭川市9条通21丁目2番8号,19,医療法人双葉会,松尾　弘文,内|リハ,,0166-35-2111,43.7687446,142.3852972,237,,237,,,,,
450,旭川市,医療法人社団博彰会佐野病院,H4.9.14,H4.10.1,071-8133,旭川市末広3条3丁目1番15号,19,医療法人社団博彰会,佐野　博昭,内|リハ|消化器内科|循環器内科|呼吸器内科|内分泌内科|糖尿病内科,○,0166-52-1177,43.807774,142.3820598,99,60,39,,,,,
451,旭川市,医療法人順真会メイプル病院,H3.8.13,H3.9.1,070-0061,旭川市曙1条8丁目2番地の29,19,医療法人順真会メイプル病院　,相澤　裕二,精,,0166-22-7245,43.7714512,142.3377383,100,,,100,,,,
452,旭川市,医療法人仁友会北彩都病院,H17.3.4,H17.5.1,070-0030,旭川市宮下通9丁目2番1号,19,医療法人仁友会,石田　裕則,内|外|泌,,0166-26-6411,43.7633278,142.3602865,116,116,,,,,,
453,旭川市,岩田病院,H14.3.12,H14.3.15,070-0034,旭川市4条通13丁目右5号,23,岩田　豊仁,岩田　豊仁,呼吸器内科|消化器内科|外|整|肛門内科,,0166-23-2201,43.7662666,142.3692603,36,36,,,,,,
454,旭川市,医療法人健光会旭川ペインクリニック病院,H8.4.26,H8.5.1,070-0034,旭川市4条通17丁目1553番地,19,医療法人健光会,赤間　保之,内|循環器内科|ペインクリニック内科|放|麻，リハ,,0166-22-2003,43.7649781,142.3758429,52,52,,,,,,
455,旭川市,医療法人社団功和会佐久間病院,H10.8.20,H10.9.1,070-0035,旭川市5条通7丁目左7号,19,医療法人社団功和会佐久間病院,佐久間　和子,内|神|呼|胃|循|小|外|整|皮|泌|性|肛|リハ,○,0166-22-1111,43.7672301,142.3594364,50,20,30,,,,,
456,旭川市,愛生会病院,H15.9.25,H15.11.1,078-8340,旭川市東旭川町共栄223番6,19,医療法人交雄会メディカル,湯川　元資,内|胃|リハ,,0166-34-3838,43.7389201,142.4345046,60,60,,,,,,
457,旭川市,医療法人丸谷会丸谷病院,H14.12.20,H15.1.1,070-0034,旭川市4条通5丁目右1号,19,医療法人丸谷会丸谷病院,丸谷　巖,心内|精|神|胃|リウ|外|整|肛|リハ|麻,,0166-25-1111,43.7698992,142.3566478,85,42,41,2,,,,
458,旭川市,医療法人社団恩和会旭川高砂台病院,H10.8.19,H10.9.1,070-8061,旭川市高砂台1丁目1番22号,19,医療法人社団恩和会,恩田　芳和,内（消化器|循環器|呼吸器|内分泌|代謝|糖尿病|胃腸|大腸内視鏡|老人|人工透析|漢方）|外（消化器|末梢血管|肛門|内分泌|老人）|整|眼|リハ|放|歯|歯外|麻,○,0166-61-5700,43.7683313,142.3124241,193,54,139,,,,,
459,旭川市,医療法人社団慈成会東旭川病院,H15.12.12,H16.1.1,078-8251,旭川市東旭川北1条6丁目146番地1,19,医療法人社団慈成会東旭川病院,斉藤　孝成,内|外|整|リハ|麻|内視鏡外科（胆のう|胃|大腸）|がん化学療法外科|乳腺外科|消化器外科（内視鏡）|大腸|肛門外科,,0166-36-2240,43.7715081,142.4426325,52,32,20,,,,,
460,旭川市,旭川リハビリテーション病院,H8.8.15,H8.9.1,078-8801,旭川市緑が丘東1条1丁目1番1号,19,医療法人社団進和会,進藤　順哉,内|神内|呼吸器内科|消化器外科|循環器内科|呼外|整|泌|リハ|歯|腎臓内科，糖尿病内科,,0166-65-6611,43.7304633,142.3881019,266,146,120,,,,,
461,旭川市,医療法人社団杏仁会大雪病院,H13.12.18,H14.1.1,079-8413,旭川市永山3条7丁目1番5号,19,医療法人社団杏仁会,尾崎　信彦,内|胃腸内科|整|脳,○,0166-48-6661,43.7940821,142.4088186,99,59,40,,,,,○
462,旭川市,医療法人健康会くにもと病院,H11.4.26,H12.3.1,070-0061,旭川市曙1条7丁目2番1号,19,医療法人健康会,國本　正雄,胃腸内科|肛門外科|リハ,,0166-25-2241,43.7706458,142.3400687,61,61,,,,,,
464,上川,幌加内町国民健康保険病院,S28.4.30,S28.7.26,074-0411,雨竜郡幌加内町字幌加内4941番地の1,6,幌加内町,森崎　龍郎,内|小,○,0165-35-2321,44.0094848,142.1542943,42,,42,,,,,
465,上川,美瑛町立病院,S34.2.12,S34.10.19,071-0207,上川郡美瑛町中町3丁目8番35号,6,美瑛町,村住　和彦,内|消|小|外|整|眼|リハ,○,0166-68-7111,43.5907173,142.4680519,98,98,,,,,,
466,上川,医療法人社団六樹会聖台病院,H5.4.27,H5.5.1,071-1561,上川郡東神楽町東1線2号13番,19,医療法人社団六樹会聖台病院,藤本　達哉,精,,0166-83-3522,43.7195267,142.4013651,120,,,120,,,,
468,名寄,士別市立病院,昭62.３.27,昭62.12.12,095-0048,士別市東11条5丁目3029番地1,6,士別市,山田　政孝,内|精|神|小|外|整|皮|泌|婦|眼|麻|循内|消内|放,○,0165-23-2166,44.1788896,142.406814,199,169,30,,,,,
469,名寄,国民健康保険町立和寒病院,昭26.11.17,昭26.12.26,098-0132,上川郡和寒町字西町111番地,6,和寒町,山下　晃史,内|小|外|麻|リハ,○,0165-32-2103,44.0220462,142.4124425,30,30,,,,,,
470,名寄,名寄市立総合病院,平2.1.5,平4.6.13,096-0017,名寄市西7条南8丁目1番地,6,名寄市,和泉　裕一,内|精|神内|呼吸器内科|消化器内科|糖尿病代謝内科|循環器内科|小|外|整|脳|呼外|心外|皮|泌|産婦|眼|耳|放|麻|心内|救急,○,01654-3-3101,44.3485052,142.4513522,359,300,,55,,4,○,○
471,名寄,町立下川病院,昭37.8.25,昭24.4.1,098-1205,上川郡下川町西町36番地,6,下川町,納田　幸一,内|小|外|放,○,01655-4-2039,44.3044586,142.6316946,42,12,30,,,,,
472,名寄,ＪＡ北海道厚生連美深厚生病院,昭36.５.31,昭36.6.1,098-2231,中川郡美深町東1条南3丁目,10,北海道厚生農業協同組合連合会,川合　重久,内|小|外,○,01656-2-1631,44.4799402,142.3486139,64,34,30,,,,,
473,名寄,医療法人臨生会吉田病院,平７.４.19,平７.５.１,096-0013,名寄市西3条南6丁目8番地2,19,医療法人臨生会,吉田　肇,内|肛|耳|リハ|歯|矯歯|小歯|歯外,,01654-3-3381,44.3496387,142.4593987,124,64,60,,,,,
474,名寄,医療法人社団三愛会名寄三愛病院,平５.４.27,平５.５.１,096-0031,名寄市西1条北5丁目1番19,19,医療法人社団三愛会,山岸　眞理,内|消|循|リハ|歯,,01654-3-3911,44.3618817,142.4625724,90,44,46,,,,,
475,名寄,名寄東病院,平15.11.25,平15.12.１,096-0006,名寄市東６条南５丁目91番地３,6,名寄市,佐古　和廣,内|脳|リハ,,01654-3-2188,44.3500724,142.4755029,105,,105, ,,,,
477,富良野,社会福祉法人北海道社会事業協会富良野病院,平17.8.31,平19.4.28,076-8765,富良野市住吉町1番30号,9,社会福祉法人北海道社会事業協会,羽根田　俊,内|小|外|心外|整|皮|泌|産婦|眼|耳|リハ|麻|呼吸器内科|循環器内科|消化器内科|神内,○,0167-23-2181,43.3476671,142.392677,255,195,56,,,4,○,
478,富良野,北の峰病院,昭55.６.５,昭55.７.１,076-0016,富良野市2062番地,19,医療法人社団博友会,久保　昌己,精|神,,0167-22-2011,34.918466,136.9617354,170,,,170,,,,
479,富良野,医療法人社団ふらの西病院,平７.12.25,平８.１.１,076-0038,富良野市桂木町2番77号,19,医療法人社団ふらの西病院,松田　英郎,内|小|外|整|麻|脳|眼|リハ,,0167-23-6600,43.3504637,142.3793307,142,58,84,,,,,
480,富良野,上富良野町立病院,昭53.10.２,昭54.12.21,071-0561,空知郡上富良野町大町3丁目2番15号,6,上富良野町,白田　克美,内|外|泌|循環器内科,○,0167-45-3171,43.454553,142.4662227,44,44,,,,,,
481,富良野,国民健康保険中富良野町立病院,昭44.12.26,昭45.１.20,071-0761,空知郡中富良野町西町３番２５号,6,中富良野町,水野　正巳,内|小,,0167-44-2020,43.4089369,142.4221225,35,35,,,,,,
483,留萌,天塩町立国民健康保険病院,H7.6.2,H7.6.16,098-3312,天塩郡天塩町字川口5699番地の3,6,天塩町,林　修也,内|小|外|婦|整|皮|眼,○,01632-2-1058,44.8867526,141.7488384,48,30,18,,, ,,
484,留萌,遠別町立国保病院,S38.5.14,S38.10.1,098-3543,天塩郡遠別町字本町1丁目3番地,6,遠別町,芝田　行徳,内|小|外|婦,○,01632-7-2211,44.7199614,141.7935246,36,16,20,,,,,
485,留萌,北海道立羽幌病院,H15.7.10,H17.7.1,078-4197,苫前郡羽幌町栄町110番地,5,北海道,貞本　晃一,内|小|外|整|皮|産婦|眼|耳|泌|精|リハ,○,0164-62-6060,44.354458,141.6945509,120,120,,,,,,
486,留萌,留萌市立病院,H10.3.24,H13.8.24,077-0011,留萌市東雲町2丁目16番地,6,留萌市,高橋　文彦,内|小|外|整|皮|泌|呼吸器内科|産婦|眼|耳|麻|脳|神経精神科|形|消化器内科|循環器内科|放|リハ,○,0164-49-1011,43.931398,141.6778788,354,300,50,, ,4,○,
487,留萌,荻野病院,H14.12.20,H15.1.1,077-0048,留萌市大町3丁目28番地1 16番地10,19,医療法人社団萌仁会,中川　孝範,精|神|内|消|心内,,0164-42-1406,43.9445586,141.634137,99,,,99,,,,
488,留萌,医療法人社団心優会留萌記念病院,H10.4.20,H10.5.1,077-0042,留萌市開運町1丁目6番1号,19,医療法人社団心優会,三輪　英則,内|外|整|リハ|消化器内科|肛門外科,,0164-42-0271,43.9407649,141.6477141,117,,117,,,,,
489,留萌,加藤病院,H11.3.19,H11.4.1,078-4106,苫前郡羽幌町南6条5丁目13番地,23,加藤　隆一,加藤　隆一,内,,0164-62-1005,44.360455,141.7037914,35,,35,,,,,
491,稚内,市立稚内病院,S33.12.5,S34.2.14,097-0022,稚内市中央4丁目11番6号,6,稚内市,國枝　保幸,内|消化器内科|血液内科|神内|循環器内科|精|小|外|整|皮|泌|産婦|眼|耳|放|麻|リハ,○,0162-23-2771,45.4131645,141.6734406,362,258,,100,,4,○,
492,稚内,豊富町国民健康保険病院,S36.12.4,S37.1.1,098-4100,天塩郡豊富町字上サロベツ2543の1番地,6,豊富町,黄　　士哲,内|小|外,○,0162-82-1515,45.0965449,141.7774688,42,42,,,,,,
493,稚内,枝幸町国民健康保険病院,S48.4.28,S49.10.1,098-5824,枝幸郡枝幸町北栄町1474番地1,6,枝幸町,白井　信正,内|小|外|整|婦|神|脳|眼|循,○,01636-2-2111,44.9433574,142.5748471,83,46,37,,,,,
494,稚内,中頓別町国民健康保険病院,S57.11.24,S57.12.10,098-5551,枝幸郡中頓別町字中頓別175番地,6,中頓別町,柴中　光一,内|外,○,01634-6-1131,44.9702768,142.2847939,50,50,,,,,,
495,稚内,浜頓別町国民健康保険病院,S50.11.29,S52.11.14,098-5791,枝幸郡浜頓別町旭ヶ丘3丁目3番地,6,浜頓別町,岡田　政信,内|消|外|整|眼|産婦|小,○,01634-2-2203,45.1189136,142.3669144,60,36,24,,,,,
496,稚内,利尻島国保中央病院,S60.9.4,S60.10.1,097-0401,利尻郡利尻町沓形字緑町11番地,6,利尻島国民健康保険病院組合,杉村　政樹,内|外|整|産婦|リハ|放|小|眼,○,01638-4-2626,45.1865934,141.1387493,42,42,,,,,,
497,稚内,猿払村国民健康保険病院,S52.12.21,S53.12.1,098-6234,宗谷郡猿払村鬼志別北町28番地,6,猿払村,小笠原 浩二,内,○,01635-2-3331,45.3321246,142.1181409,28,24,4,,,,,
498,稚内,社会医療法人禎心会稚内禎心会病院,H10.10.16,H11.1.11,097-0017,稚内市栄1丁目24番1号,19,社会医療法人禎心会,奥村　智吉,内|脳|リハ|循|消|外,○,0162-29-4311,45.3865736,141.6970702,110,50,60,,,,,○
499,稚内,市立稚内こまどり病院,H15.2.17,H15.3.1,097-0003,稚内市こまどり2丁目7番1号,6,稚内市,高木　知敬,内,,0162-23-2300,45.3903423,141.6884429,45,,45,,,,,
501,北見,美幌療育病院,H15.2.3,H15.3.1,092-0030,網走郡美幌町字美富9番地,22,社会福祉法人北海道療育園,丸山　靜男,内|小|精|循|リハ,,0152-73-3145,43.8158104,144.1026506,150,60,30,60,,,,
502,北見,美幌町立国民健康保険病院,S27.8.27,S27.8.1,092-0004,網走郡美幌町字仲町2丁目38番地,6,美幌町,松井　寛輔,内|小|外|眼|リハ|循環器内科|腎臓内科,○,0152-73-4111,43.8324503,144.1068467,99,99,,,,,,
503,北見,津別病院,S26.8.9,S26.11.15,092-0235,網走郡津別町字幸町61番地,21,丸玉産業株式会社,相澤　　誠,内|小|消|外|整|歯|歯外,○,0152-76-2121,43.7059507,144.025032,90,60,30,,,,,
504,北見,ＪＡ北海道厚生連常呂厚生病院,H18.10.10,H19.12.1,093-0210,北見市常呂町字常呂573番地2,10,北海道厚生農業協同組合,山下　昇史,内|外|皮,○,0152-54-1611,44.1174854,144.0655635,54,25,29,,,,,
505,北見,北海道立北見病院,S55.3.11,S57.2.1,090-0058,北見市高栄西町1丁目1番2号,5,北海道,一色　学,内|呼吸器内科|呼外|循環器内科|心外|麻,,0157-24-6261,43.8095468,143.8686836,130,130,,,,,,
506,北見,北見赤十字病院,S10.10.31,S10.11.10,090-8666,北見市北6条東2丁目1番地,7,日本赤十字社,吉田　茂夫,内|神経精神科|循環器内科|消化器内科|小|外|整|形|脳|皮|泌|産婦|眼|頭頸部|耳鼻咽喉科|放|麻|ペインクリニック|心療内科|リハ|消化器外科|緩和ケア内科,○,0157-24-3115,43.8083532,143.8930482,532,490,,40,,2,○,○
507,北見,置戸赤十字病院,S22.1.21,S22.1.31,099-1131,常呂郡置戸町字置戸77,7,日本赤十字社,長谷川　岳尚,内|皮|麻,○,0157-52-3321,43.6778113,143.5883635,95,47,48,,,,,
508,北見,医療法人社団拓美会玉越病院,H11.12.20,H12.1.1,090-0835,北見市光西町195番地,19,医療法人社団拓美会玉越病院,玉越　拓摩,心内|精|神,,0157-24-3323,43.7929485,143.8677288,110,,,110,,,,
509,北見,小林病院,H26.3.20,H26.4.1,090-0043,北見市北3条西4丁目2番地,23,小林　丈泰,小林　丈泰,内|心内|精|消|循|外|整|脳|皮|泌|肛|リハ|放|麻,○,0157-23-5171,43.8035758,143.8911402,300,256,44,,,,,
510,北見,オホーツク勤医協北見病院,H10.12.18,H11.1.1,090-0817,北見市常盤町5丁目7番地5,19,医療法人オホーツク勤労者医療協会,富田　薫,内,,0157-26-1300,43.7930158,143.8893882,50,50,,,,,,
511,北見,社会医療法人耳鼻咽喉科麻生北見病院,H8.4.30,H9.6.1,090-0836,北見市東三輪2丁目54番8,19,医療法人耳鼻咽喉科麻生,平塚　仁志,耳|歯外,,0157-23-4133,43.7999057,143.8576544,48,48,,,,,,
512,北見,医療法人治恵会北見中央病院,H11.9.29,H11.10.1,090-0833,北見市とん田東町383番地,19,医療法人治恵会,森本　典雄,内|神内|消化器内科|外|整|脳|リハ|麻|乳腺外科,○,0157-24-3100,43.7987593,143.8784166,75,40,35,,,,,
513,北見,北見北斗病院,H27.9.4,H27.9.4,090-0045,北見市北5条西1丁目6番地,23,森本　一郎,森本　一郎,内|呼|消|循|外,,0157-23-3225,43.8067033,143.8928594,75,,75,,,,,
514,北見,医療法人社団公和会中村記念愛成病院,H24.10.19,H24.11.12,090-0051,北見市高栄東町4丁目20番1号,19,医療法人社団公和会,山内　智文,産|婦|小,,0157-24-8131,43.8189628,143.8745077,41,41,,,,,○,
515,北見,医療法人社団潤清会端野病院,H4.8.27,H4.9.1,099-2101,北見市端野町1区666番地,19,医療法人社団潤清会,藤田　一清,内|精|神,,0157-56-3151,43.8856686,143.9803421,140,,,140,,,,
516,北見,"医療法人ケイ,アイオホーツク海病院",H7.7.18,H8.7.1,099-2102,北見市端野町2区793番地1,19,"医療法人ケイ,アイ",伊藤　博史,内|リハ|放,,0157-67-6000,43.8638982,143.9282174,100,,100,,,,,
517,北見,"北星脳神経,心血管内科病院",H21.11.12,H22.1.1,090-0836,北見市東三輪2丁目36番地1,19,医療法人社団高翔会,松岡　高博,神内|脳|リハ|麻|循環器内科|泌|歯外|脳神経|心血管内科,○,0157-26-8800,43.7989309,143.8589182,102,50,52,,,,,
518,北見,社会医療法人明生会道東脳神経外科病院,H20.1.1,H20.1.1,090-0062,北見市美山町68番地9,19,社会医療法人明生会,木村　輝雄,脳|リハ,○,0157-69-0300,43.818802,143.8837931,60,60,,,,,,○
520,網走,北海道立向陽ヶ丘病院,S27.12.5,S29.4.1,093-0084,網走市向陽ケ丘1丁目5番1号,5,北海道,佐々木　信一,精,,0152-43-4138,44.0271947,144.2550775,146,,,146,,,,
521,網走,斜里町国民健康保険病院,S36.9.18,S36.11.14,099-4117,斜里郡斜里町青葉町41番地,6,斜里町,石村　美樹,内|小|外|産婦,○,0152-23-2102,43.9051048,144.663525,111,60,51,,,,,
522,網走,ＪＡ北海道厚生連網走厚生病院,S17.12.14,S19.10.15,093-0076,網走市北6条西1丁目9番地,10,北海道厚生農業協同組合連合会,藤永　明,内|循|小|外|整|皮|泌|産婦|眼|耳|放|麻|消,○,0152-43-3157,44.0254812,144.2631518,366,364,,,,2,○,
523,網走,小清水赤十字病院,H5.3.22,H6.10.9,099-3626,斜里郡小清水町字小清水645番地16,7,日本赤十字社,伊藤　嘉行,内|消|整|皮|循|眼|糖尿病内分泌科,○,0152-62-2121,43.8558409,144.4601035,99,49,50,,,,,
524,網走,医療法人社団網走中央病院,H9.12.17,H10.1.1,093-0006,網走市南6条東1丁目7番地,19,医療法人社団網走中央病院,有里　仁志,内|外|整|消化器内科,,0152-44-8611,44.0196363,144.2685227,86,,86,,,,,
525,網走,医療法人社団朗愛会こが病院,H16.11.2,H18.3.1,093-0042,網走市字潮見153番地1,19,医療法人社団朗愛会,古賀　敏朗,内|消|循|外|整|麻|リハ,○,0152-61-0101,43.9916152,144.2666554,130,82,48,,,,,
526,網走,"社会医療法人明生会網走脳神経外科,リハビリテーション病院",H6.4.28,H6.5.1,093-0041,網走市桂町4丁目1番7号,19,社会医療法人明生会,泉　直人,脳|リハ,○,0152-45-1311,44.014674,144.2697238,64,64,,,,,,○
527,網走,医療法人社団双心会女満別中央病院,H20.12.3,H21.1.1,099-2324,網走郡大空町女満別西4条4丁目1番29号,19,医療法人社団双心会,加藤　秀和,内|消|外|皮|リハ,○,0152-74-2181,43.9095199,144.1711707,82,42,40,,,,,
529,紋別,ＪＡ北海道厚生連遠軽厚生病院,H2.8.31,H4.4.1,099-0404,紋別郡遠軽町大通北3丁目1番5号,10,北海道厚生農業協同組合連合会,矢吹　英彦,内|循環器内科|消化器内科|小|外|消化器外科|整|脳|皮|泌|産婦|眼|耳|リハ|放|精|麻,○,0158-42-4101,44.0626642,143.5240945,337,285,50,,,2,○,
530,紋別,ＪＡ北海道厚生連丸瀬布厚生病院,S33.5.1,S33.5.1,099-0201,紋別郡遠軽町丸瀬布新町274番地1,10,北海道厚生農業協同組合連合会,平山　典保,内|小|外|整|リハ|皮,○,0158-47-3131,44.0029655,143.3380586,50,50,,,,,,
531,紋別,遠軽共立病院,H15.9.22,H15.9.22,099-0404,紋別郡遠軽町大通北1丁目3番地,23,田中　実,田中　実,内|整,○,0158-42-5215,44.0595423,143.5254224,99,39,60,,,,,
532,紋別,医療法人恵池会遠軽学田病院,H9.4.30,H9.5.1,099-0405,紋別郡遠軽町岩見通北6丁目2番地,19,医療法人恵池会,高桑　眞,内|精|神,,0158-42-2741,44.0680193,143.5253441,135,,,135,,,,
533,紋別,医療法人社団耕仁会曽我病院,H4.12.24,H5.1.14,099-6329,紋別郡湧別町中湧別中町826番地の1,19,医療法人社団耕仁会,渋谷　努,内|外|整|皮|泌,○,01586-2-2001,44.1886727,143.591507,47,47,,,,,,
534,紋別,広域紋別病院,H27.3.18,H27.4.17,094-8709,紋別市落石町1丁目3番37号,6,広域紋別病院企業団,及川　郁雄,内|精|神内|小|外|整|皮|泌|産婦|眼|耳|リハ|放|呼吸器内科|循環器内科|消化器内科|麻,○,0158-24-3111,44.361728,143.3467171,150,148,,,,2,○,
535,紋別,興部町国民健康保険病院,H27.3.11,H27.4.1,098-1615,紋別郡興部町字興部1322番地の23,6,興部町,堀　泰之,内|小|外|泌|皮,○,0158-82-2310,44.4700915,143.1187855,50,32,18,,,,,
536,紋別,雄武町国民健康保険病院,H15.3.19,H15.4.1,098-1700,紋別郡雄武町字雄武1482番地2,6,雄武町,花田　裕之,内|小|外|整|耳|リハ|消化器内科,○,0158-84-2517,44.582395,142.956883,25,25,,,,,,
537,紋別,滝上町国民健康保険病院,S49.9.17,S51.1.1,099-5600,紋別郡滝上町字サクルー原野1605番地,6,滝上町,中村　豊,内|外|整,○,0158-29-2220,44.1975824,143.0622776,54,26,28,,,,,
538,紋別,医療法人社団幸栄病院,H18.3.28,H18.4.1,094-0005,紋別市幸町6丁目1番8号,19,医療法人社団　幸栄病院,鈴木　一弘,内|外|整,,0158-24-3365,44.350893,143.3524594,90,,90,,,,,
539,紋別,紋別みなと病院,H22.3.15,H22.4.1,094-0004,紋別市本町3丁目2番3号,23,横山　登,横山　登,内|外|泌|皮,,0158-23-2032,44.3538234,143.3557812,58,,58,,,,,
540,紋別,大原病院,H6.10.5,H6.11.1,094-0005,紋別市幸町4丁目1番16号,23,大原　和明,大原　和明,内|消化器内科,,0158-23-3151,44.3535983,143.3529313,81,,81,,,,,
541,紋別,医療法人社団耕仁会曽我クリニック,H14.8.23,H14.9.1,094-0021,紋別市大山町4丁目14番地1,19,医療法人社団耕仁会,曽我　龍紀,内|循|外|脳|泌|リハ|心外,○,0158-23-6811,44.34904,143.3388854,50,50,,,,,,
543,帯広,独立行政法人国立病院機構帯広病院,S18.7.30,S22.4.1,080-8518,帯広市西18条北2丁目16,1,独立行政法人国立病院機構,菊池洋一,|内|呼|小|呼外|心外|小外|循|麻|精|神|脳|,○,0155-33-3155,42.9366925,143.1617504,353,239,,100,14,,,
544,帯広,ＪＡ北海道厚生連帯広厚生病院,S30.12.26,S30.12.28,080-0016,帯広市西6条南8丁目1番地,10,北海道厚生農業協同組合連合会,菊池英明,|内|精|神内|呼|消|循|小|外|整|形|皮|泌|産婦|眼|耳|リハ|放|麻|心外|脳|病理診断科|,○,0155-24-4161,42.9227295,143.1945505,748,672,,70,,6,○,○
545,帯広,医療法人社団博仁会大江病院,S46.3.8,S46.4.1,080-2470,帯広市西20条南2丁目5番3号,19,医療法人社団博仁会,大江平,|内|神経精神|,,0155-33-6332,42.9201972,143.1491047,154,,,154,,,,
546,帯広,医療法人社団刀圭会協立病院,S50.7.4,S50.7.15,080-0046,帯広市西16条北1丁目27番地の５,19,医療法人社団刀圭会,佐藤幸宏,|内|整|リハ|歯|矯|歯外|リウ|麻|乳外|肛外|,○,0155-35-3355,42.9313691,143.1754632,120,60,60,,,,,
547,帯広,公益財団法人北海道医療団帯広西病院,S55.9.27,S55.11.10,080-2473,帯広市西23条南1丁目129番地,19,公益財団法人北海道医療団,清水章,|内|消|リハ|神内|耳|,,0155-37-3330,42.9223106,143.1259674,135,,135,,,,,
548,帯広,おびひろ呼吸器科内科病院,S57.5.21,S57.7.1,080-0805,帯広市東5条南20丁目1番地,19,社会医療法人恵和会,菅原好孝,|内|呼|リハ|,,0155-22-3101,42.9095101,143.215249,49,49,,,,,,
549,帯広,医療法人啓和会黒澤病院,S60.4.19,S60.5.1,080-0010,帯広市大通南4丁目1番地,19,医療法人啓和会,前田修一,|内|整|リハ|リウ|心内|消化器内科|呼吸器内科|神内|,○,0155-24-2200,42.92831,143.2039687,99,53,46,,,,,
550,帯広,医療法人社団慶愛慶愛病院,S63.8.11,S63.9.1,080-0803,帯広市東3条南9丁目2番地,19,医療法人社団慶愛,真井康博,|小|産|婦|,,0155-22-4188,42.9227916,143.2104071,51,51,,,,,○,
551,帯広,医療法人進和会西２条腎泌尿器科病院,H1.3.9,H1.4.1,080-0012,帯広市西2条南2丁目10番地,19,医療法人進和会,高橋和明,|泌|,,0155-27-2301,42.9300929,143.2009134,28,28,,,,,,
552,帯広,十勝勤医協帯広病院,H1.3.30,H1.4.17,080-0019,帯広市西9条南12丁目4番地,19,医療法人十勝勤労者医療協会,深町知博,|内|消|リウ|,,0155-21-4111,42.917405,143.1919843,55,55,,,,,,
553,帯広,医療法人社団新井病院,H7.12.22,H8.1.1,080-0011,帯広市西1条南15丁目6番地,19,医療法人社団新井病院,新井三郎,|内|消化器内科|胃腸内科|外科|,,0155-24-6767,42.9151366,143.2047442,43,43,,,,,,
554,帯広,社会医療法人北斗北斗病院,H8.4.30,H8.5.1,080-0833,帯広市稲田町基線7番地5,19,社会医療法人北斗,井出渉,|脳|脳神経内科|循環器内科|消化器外科|消化器内科|麻|リハ|歯|歯外|リウ|整|放射線診断科|放射線治療科|内|外|形|頭頸部外科|乳腺外科|腫瘍外科|神内|病理診断科|耳|心臓血管外科|呼吸器内科|人工透析内科|腎臓内科|緩和ケア内科|小|肛外|,○,0155-48-8000,42.8800565,143.189192,267,221,46,,,,,○
555,帯広,公益財団法人北海道医療団帯広第一病院,H8.9.25,H9.12.18,080-0014,帯広市西4条南15丁目17番3,18,公益財団法人北海道医療団,山並秀章,|内|消内|循内|透内|外|消外|乳外|肛外|脳|整|歯|矯|小歯|歯外|麻|リハ|放|内視鏡内|,○,0155-25-3121,42.9148697,143.1999725,303,253,50,,,,,
556,帯広,医療法人社団博愛会開西病院,H10.4.28,H10.5.1,080-2473,帯広市西23条南2丁目16番地27,18,医療法人社団博愛会,細川吉博,|整|内|循内|消内|消外|リハ|肛外|外|麻|リウ|形外|,○,0155-38-7200,42.9176973,143.1293397,196,136,60,,,,,
557,帯広,社会福祉法人北海道社会事業協会帯広病院,H9.7.16,H11.4.1,080-0805,帯広市東5条南9丁目2番地,9,社会福祉法人北海道社会事業協会,阿部厚憲,|内|消|循|呼|外|小|整|脳|産婦|眼|耳|精|麻|リハ|リウ|泌|形|腎臓内科|放|,○,0155-22-6600,42.9226529,143.2137512,300,300,,,,,○,
558,帯広,社会福祉法人真宗協会帯広光南病院,H10.11.6,H11.11.15,080-0836,帯広市空港南町303番地７,22,社会福祉法人真宗協会,鹿野泰邦,|内|リハ|,,0155-47-4811,42.8768221,143.1617224,100,,100,,,,,
559,帯広,医療法人社団芳誠会十勝脳神経外科病院,H18.12.15,H19.1.1,080-0023,帯広市西13条南1丁目1番地2,19,医療法人社団芳誠会,増井信也,|脳|神内|,,0155-35-6711,42.9301696,143.1825515,125,125,,,,,,
560,帯広,社会医療法人北斗十勝リハビリテーションセンター,H24.11.1,H25.11.1,080-0833,帯広市稲田町基線2番1号,19,社会医療法人北斗,佐和弘基,|リハ|神内|,,0155-47-5100,42.8850394,143.1910137,199,79,120,,,,,
561,帯広,北海道立緑ヶ丘病院,S56.5.22,S59.7.1,080-0334,河東郡音更町緑が丘1番地,5,北海道,東端憲仁,|精|,,0155-42-3377,42.985758,143.1951744,168,,,168,,,,
562,帯広,公益財団法人北海道医療団音更病院,S62.3.24,S62.4.1,080-0318,河東郡音更町緑陽台南区2番6,18,公益財団法人北海道医療団,守屋至,|内|胃|リハ|,,0155-31-7111,42.964047,143.1985118,108,,108,,,,,
563,帯広,医療法人徳洲会帯広徳洲会病院,H13.5.21,H13.6.1,080-0302,河東郡音更町木野西通14丁目2番地1,19,医療法人徳洲会,棟方隆,|内|消|循|小|外|整|リハ|放|麻|眼|歯外|,○,0155-32-3030,42.9633308,143.2038917,152,152,,,,,,
564,帯広,医療法人社団翔嶺館音更宏明館病院,H26.2.21,H26.4.1,080-0111,河東郡音更町木野大通東17丁目1番6,19,医療法人社団翔嶺館,藤井宏一,|内|リハ|外|泌|循外|婦|人透|神経精神科|,○,0155-32-3311,42.9711495,143.2084879,180,60,120,,,,,
565,帯広,士幌町国民健康保険病院,S46.12.7,S46.12.20,080-1217,河東郡士幌町字士幌西2線167番地,6,士幌町,池田和雄,|内|小|外|整|眼|泌|,○,01564-5-2106,43.1701994,143.2474456,60,40,20,,,,,
566,帯広,鹿追町国民健康保険病院,S26.7.13,S26.9.12,081-0295,河東郡鹿追町東町1丁目38番地,6,鹿追町,白川拓,|内|外|整|小|放|眼|泌|,○,0156-66-2031,43.0995158,142.9901596,50,23,27,,,,,
567,帯広,清水赤十字病院,S27.1.28,S27.3.1,089-0195,上川郡清水町南2条2丁目1番地,7,日本赤十字社,藤城貴教,|内|外|小|整|消内|,○,0156-62-2513,43.0121755,142.8830096,92,92,,,,,,
568,帯広,医療法人啓仁会啓仁会病院,S60.1.4,S60.2.1,089-0354,上川郡清水町御影本通5丁目9番地,19,医療法人啓仁会,里見龍太,|内|リハ|放|,,0156-63-3131,42.9466404,142.9406103,48,,48,,,,,
569,帯広,公立芽室病院,S29.12.2,S30.2.18,082-0014,河西郡芽室町東4条3丁目5番地,6,芽室町,小窪正樹,|内|小|外|整|産婦|放|歯|眼|耳|リハ|麻|,○,0155-62-2811,42.9129846,143.0545178,150,150,,,,,○,
570,帯広,大樹町立国民健康保険病院,S45.5.11,S45.6.1,089-2145,広尾郡大樹町暁町6番地2,6,大樹町,岩渕敏樹,|内|外|整|小|眼|泌|,○,01558-6-3111,42.4880523,143.280092,50,50,,,,,,
571,帯広,広尾町国民健康保険病院,S63.12.16,H1.11.1,089-2622,広尾郡広尾町公園通南4丁目1番地,6,広尾町,沼田隆明,|内|外|胃内|整|リハ|脳|精|皮|,○,01558-2-3111,42.2987947,143.3056811,60,40,20,,,,,
572,帯広,医療法人社団翔嶺館十勝の杜病院,H17.3.10,H17.4.1,089-0563,中川郡幕別町字千住193番地4,19,医療法人社団翔嶺館,佐竹實,|内|消化器内科|外|循環器内科|,,0155-56-8811,42.9162501,143.2716268,110,52,58,,,,,
573,帯広,十勝いけだ地域医療センター,S30.2.24,S30.7.8,083-0022,中川郡池田町字西2条5丁目25番地,6,池田町,奥山泰史,|内|外|小|リハ|,○,015-572-3181,42.9258024,143.4476749,60,60,,,,,,
574,帯広,本別町国民健康保険病院,H10.6.30,H12.4.1,089-3306,中川郡本別町西美里別6番地8,6,本別町,一条正彦,|内|外|小|精|眼|耳|整|泌|脳|,○,0156-22-2025,43.1222916,143.5919528,60,60,,,,,,
575,帯広,足寄町国民健康保険病院,S23.6.14,S23.6.14,089-3712,足寄郡足寄町南2条3丁目1番地,6,足寄町,村上英之,|内|循内|外|消外|肛外|精|婦|眼|整|,○,0156-25-2155,43.2420149,143.5491278,60,60,,,,,,
577,釧路,独立行政法人労働者健康福祉機構　釧路労災病院,昭34.11.16,昭35.１.22,085-0052,釧路市中園町13番23号,3,独立行政法人労働者健康福祉機構,草野　満夫,内|消内|精|神内|循|小|外|整|形|脳|皮|泌|産婦|眼|耳|リハ|放|歯|麻|歯科口腔外科,○,0154-22-7191,43.0060991,144.385274,500,500,,,,,,○
578,釧路,市立釧路総合病院,昭56.10.８,昭59.９.24,085-0822,釧路市春湖台1番12号,6,釧路市,高平　真,内|精|神|呼吸器内科|消化器内科|心臓血管内科|小|外|整|脳|心外|皮|泌|産婦|眼|耳|放|歯|歯外|麻|リウ|リハ|アレ|病理診断科,○,0154-41-6121,42.9769812,144.40367,643,535,,94,10,4,○,○
579,釧路,町立厚岸病院,昭42.２.22,昭43.１.16,088-1127,厚岸郡厚岸町住の江１丁目１番地,6,厚岸町,佐々木 暢彦,内|小|外|整|脳,○,0153-52-3145,43.0572587,144.8463071,55,55,,,,,,
580,釧路,総合病院釧路赤十字病院,昭34.８.３,昭34.12.１,085-0032,釧路市新栄町21番14号,7,日本赤十字社,二瓶　和喜,内|精|消化器外科|小|外|整|皮|泌|産婦|眼|耳|リハ|放|歯|矯歯|歯外|麻|病理診断科,○,0154-22-7171,43.0016023,144.3810274,489,431,,58,,,○,
581,釧路,医療法人太平洋記念みなみ病院,平９.４.22,平９.５.１,085-0813,釧路市春採7丁目9番9号,19,医療法人太平洋記念みなみ病院,冨安　孝則,内|呼吸器内科|消化器内科|整|リハ|循環器内科,,0154-46-3162,42.9787903,144.4188904,80,54,26,,,,,
582,釧路,医療法人社団三慈会釧路三慈会病院,平21.3.17,平21.4.1,085-0836,釧路市幣舞町4番30号,19,医療法人社団三慈会,西池　淳,内|整外|外|麻|循環器内科|ペインクリニック外科,○,0154-41-2299,42.9787717,144.3868387,126,126,,,,,,
583,釧路,道東勤医協釧路協立病院,昭58.３.14,昭58.４.１,085-0055,釧路市治水町3番14号,19,医療法人道東勤労者医療協会,吉岡　猛,内|リウ|外|整|麻|リハ,○,0154-24-6811,43.0084738,144.3714835,182,137,45,,,,,
584,釧路,医療法人扶恵会釧路中央病院,昭55.10.18,昭55.11.１,085-0018,釧路市黒金町8丁目3番地,19,医療法人扶恵会,梶原　慶二,内|消|リハ,,0154-31-2111,42.9859875,144.3829471,147,,147,,,,,
585,釧路,つるい養生邑病院,平元.４.19,平元.５.１,085-1200,阿寒郡鶴居村字雪裡原野北22線西11番地,19,医療法人養生邑,樋田　精一,内|精|神,,0154-64-2321,43.2726586,144.3258432,146,,26,120,,,,
586,釧路,医療法人社団優心会釧路優心病院,平24.8.13,平24.9.１,084-0917,釧路市大楽毛4丁目1番1号,19,医療法人社団優心会,長谷川　勝,精|神,,0154-57-8054,43.0095061,144.2734846,97,,,97,,,,
587,釧路,医療法人社団藤花会　釧路谷藤病院,平10.８.19,平10.９.１,085-0006,釧路市双葉町3番15号,19,医療法人社団藤花会,富田　健,内|外,,0154-22-7111,42.9959365,144.3896545,42,42,,,,,,
588,釧路,医療法人清水桜が丘病院,平９.12.24,平10.１.１,085-0805,釧路市桜ケ岡8丁目1番2号,19,医療法人清水桜が丘病院,清水　輝彦,精|神,,0154-91-6011,42.9701752,144.4364223,162,,,162,,,,
589,釧路,社会医療法人孝仁会　星が浦病院,平７.１.31,平８.４.１,084-0912,釧路市星が浦大通3丁目9番13号,19,社会医療法人孝仁会,高谷　了,神内|循環器内科|脳|  呼外|心外|整外|放|  リハ|消化器外科,○,0154-54-2500,43.0158543,144.3160385,138,42,96,,,,,
590,釧路,医療法人社団美生会釧路第一病院,平13.８.３,平13.９.１,084-0906,釧路市鳥取大通4丁目11番10号,19,医療法人社団美生会釧路第一病院,木内 真理子,内|外|整|皮,,0154-51-2121,43.013759,144.3509519,82,,82,,,,,
591,釧路,医療法人社団敬愛会白樺台病院,平17.12.6,平18.1.1,085-0804,釧路市白樺台2丁目25番1号,19,医療法人社団敬愛会白樺台病院,松本　明彦,内|消化器内科|循環器内科,,0154-91-6311,42.9599903,144.445672,108,,108,,, ,,
592,釧路,医療法人東北海道病院,平６.12.14,平７.１.１,085-0036,釧路市若竹町7番19号,19,医療法人東北海道病院,池田　清豪,リウ|整|リハ|麻|内,○,0154-23-2754,42.9984082,144.3746753,183,183,,,,,,
593,釧路,医療法人豊慈会釧路北病院,平14.８.７,平16.５.１,084-0902,釧路市昭和190番地105,19,医療法人豊慈会,豊増　省三,内|リハ|眼,,0154-55-6111,43.0343901,144.3565424,244,,244,,,,,
594,釧路,釧央脳神経外科病院,平10.３.19,平10.４.１,085-0053,"釧路市豊川町1番9号
",19,医療法人双葉会,平野　　亮,脳,,0154-25-3511,43.0071212,144.3799411,94,50,44,,,,,
595,釧路,標茶町立病院,昭32.６.20,昭32.６.20,088-2311,川上郡標茶町開運4丁目1番地,6,標茶町,佐藤　泰男,内|小|外|産婦|リハ,○,015-485-2135,43.3002793,144.5978485,60,60,,,,,,
596,釧路,医療法人共生会川湯の森病院,平24.4.25,平24.5.１,088-3465,川上郡弟子屈町川湯温泉4丁目8番30号,19,医療法人共生会,角田　俊信,内|心内|精,,015-483-3121,43.6426538,144.4384361,100,,100,,,,,
597,釧路,ＪＡ北海道厚生連摩周厚生病院,平15.２.４,平15.３.20,088-3212,川上郡弟子屈町泉２丁目３番1号,10,北海道厚生農業協同組合連合会,森　　正光,内|外|整|リハ|眼|リウ|小|皮,○,015-482-2241,43.4815206,144.4633595,99,55,44,,,,,
598,釧路,社会医療法人孝仁会　釧路孝仁会記念病院,平18.10.2,平19.12.1,085-0062,釧路市愛国191番212,19,社会医療法人孝仁会,原田　英之,脳|整|心外|循環器内科|内|呼吸器内科|外|放|麻|リハ|泌|神内,○,"0154-39-
1222",43.028695,144.3989988,232,232,,,,,,○
600,根室,市立根室病院,昭32.10.14,昭32.10.14,087-0008,根室市有磯町1丁目2番地,6,根室市,東浦  勝浩,内|呼吸器内科|消化器内科|循環器内科|消化器外科|小|外|整|脳|心外|皮|泌|産婦|眼|耳|リハ|麻|放,○,0153-24-3201,43.3335977,145.5867205,135,131,,,,4,,
601,根室,根室共立病院,平５.10.７,平５.10.７,087-0045,根室市花園町4丁目1番地,23,杉木　博幸,杉木　博幸,内|精|神|循,,0153-24-4736,43.3262373,145.5699079,115,,,115,,,,
602,根室,江村精神科内科病院,平２６．３．２０,平２６．４．１,087-0008,根室市有磯町2丁目25番地,19,医療法人社団裕敬会,江村　裕司,内|精,,0153-22-2811,43.3327423,145.5898508,101,,,101,,,,
604,中標津,町立中標津病院,H8.12.19,H11.4.1,086-1110,標津郡中標津町西10条南9丁目1番地1,6,中標津町,長渕　英介,内|精|循|小|外|整|産婦|眼|耳|皮|泌|リハ|放|麻,○,0153-72-8200,43.5370528,144.9715868,199,180,19,,,,○,
605,中標津,標津町国民健康保険標津病院,H5.10.28,H6.4.1,086-1631,標津郡標津町北1条西5丁目6番1,6,標津町,大野　高義,内|外,○,0153-82-2111,43.6591232,145.1197863,35,35,,,,,,
606,中標津,町立別海病院,S26.10.25,S26.11.13,086-0203,野付郡別海町別海西本町103番地9,6,別海町,西村　進,内|精|心内|小|外|産婦|耳|眼|皮|リハ,○,0153-75-2311,43.391649,145.1215014,84,84,,,,,○,
607,中標津,医療法人樹恵会石田病院,H10.1.20,H11.1.1,086-1160,標津郡中標津町りんどう町5番地6,19,医療法人樹恵会,石田　康雄,内|リハ,,0153-72-9112,43.54427,144.9269621,120,,120,,,,,
608,札幌市,医療法人社団 北匠会 札幌北脳神経外科,,,001-0906,北海道札幌市北区新琴似６条１７丁目７−１０,,,,,,,43.124982,141.305507,,,,,,,,○
609,,コスモ脳神経外科,,,065-0021,北海道札幌市東区北２１条東２１丁目１−１,,,,,,,43.089758,141.382044,,,,,,,,○
610,,札幌市南区医療法人一仁会　南札幌脳神経外科,,,,,,,,,,,43.00012,141.331257,,,,,,,,○
611,,医療法人萌佑会岩見沢脳神経外科,,,,,,,,,,,43.191422,141.752184,,,,,,,,○
612,,医療法人社団苫小牧東部脳神経外科,,,,,,,,,,,42.674283,141.687111,,,,,,,,○
613,,留萠留萌市社会医療法人孝仁会留萠セントラルクリニック,,,,,,,,,,,43.942797,141.648435,,,,,,,,○
